{"type":"FeatureCollection","features":[{"type":"Feature","id":0,"geometry":{"type":"Point","coordinates":[106.80199895787641,-6.2433127052676438]},"properties":{"FID":0,"STOP_ID":"","STOP_NAME":"Blok M","ROUTES":"BRT_01","MODE":"BRT","STATUS":"Eksisting","SOURCE":"Transjakarta, OpenStreetMap","REMARK":"","DISPLAY_NM":"Blok M","STOP_ROLE":"Terminus","DIR_MAP":" ","INTEGRASI":"MRT_NS","SEQ_MAP":"BRT_01:01","INT_NM":"MRT_NS:Blok M"}},{"type":"Feature","id":1,"geometry":{"type":"Point","coordinates":[106.79910408620906,-6.2399149818135387]},"properties":{"FID":1,"STOP_ID":"","STOP_NAME":"ASEAN","ROUTES":"BRT_01","MODE":"BRT","STATUS":"Eksisting","SOURCE":"Transjakarta, OpenStreetMap","REMARK":"","DISPLAY_NM":"ASEAN","STOP_ROLE":"Reguler","DIR_MAP":"BRT_01:Kota","INTEGRASI":"BRT_13;MRT_NS","SEQ_MAP":"BRT_01:02","INT_NM":"BRT_13:CSW;MRT_NS:ASEAN Headquarters"}},{"type":"Feature","id":2,"geometry":{"type":"Point","coordinates":[106.7984460252644,-6.2404557613200318]},"properties":{"FID":2,"STOP_ID":"","STOP_NAME":"Kejaksaan Agung","ROUTES":"BRT_01","MODE":"BRT","STATUS":"Eksisting","SOURCE":"Transjakarta, OpenStreetMap","REMARK":"","DISPLAY_NM":"Kejaksaan Agung","STOP_ROLE":"Reguler","DIR_MAP":"BRT_01:Blok M","INTEGRASI":"BRT_13;MRT_NS","SEQ_MAP":"BRT_01:02","INT_NM":"BRT_13:CSW;MRT_NS:ASEAN Headquarters"}},{"type":"Feature","id":3,"geometry":{"type":"Point","coordinates":[106.79844832306158,-6.2364298332770955]},"properties":{"FID":3,"STOP_ID":"","STOP_NAME":"Masjid Agung","ROUTES":"BRT_01","MODE":"BRT","STATUS":"Eksisting","SOURCE":"Transjakarta, OpenStreetMap","REMARK":"","DISPLAY_NM":"Masjid Agung","STOP_ROLE":"Reguler","DIR_MAP":" ","INTEGRASI":" ","SEQ_MAP":"BRT_01:03","INT_NM":""}},{"type":"Feature","id":4,"geometry":{"type":"Point","coordinates":[106.80098063611486,-6.2278788393949061]},"properties":{"FID":4,"STOP_ID":"","STOP_NAME":"Bundaran Senayan","ROUTES":"BRT_01","MODE":"BRT","STATUS":"Eksisting","SOURCE":"Transjakarta, OpenStreetMap","REMARK":"","DISPLAY_NM":"Bundaran Senayan","STOP_ROLE":"Reguler","DIR_MAP":" ","INTEGRASI":"MRT_NS","SEQ_MAP":"BRT_01:04","INT_NM":"MRT_NS:Senayan"}},{"type":"Feature","id":5,"geometry":{"type":"Point","coordinates":[106.80570373454665,-6.2242869605292217]},"properties":{"FID":5,"STOP_ID":"","STOP_NAME":"Senayan","ROUTES":"BRT_01","MODE":"BRT","STATUS":"Eksisting","SOURCE":"Transjakarta, OpenStreetMap","REMARK":"","DISPLAY_NM":"Senayan Bank Jakarta","STOP_ROLE":"Reguler","DIR_MAP":" ","INTEGRASI":" ","SEQ_MAP":"BRT_01:05","INT_NM":""}},{"type":"Feature","id":6,"geometry":{"type":"Point","coordinates":[106.81028905894172,-6.2210733740914579]},"properties":{"FID":6,"STOP_ID":"","STOP_NAME":"Polda Metro Jaya","ROUTES":"BRT_01","MODE":"BRT","STATUS":"Eksisting","SOURCE":"Transjakarta, OpenStreetMap","REMARK":"","DISPLAY_NM":"Polda Metro Jaya","STOP_ROLE":"Reguler","DIR_MAP":" ","INTEGRASI":"MRT_NS","SEQ_MAP":"BRT_01:06","INT_NM":"MRT_NS:Istora"}},{"type":"Feature","id":7,"geometry":{"type":"Point","coordinates":[106.81537190915822,-6.217072452176847]},"properties":{"FID":7,"STOP_ID":"","STOP_NAME":"Bendungan Hilir","ROUTES":"BRT_01","MODE":"BRT","STATUS":"Eksisting","SOURCE":"Transjakarta, OpenStreetMap","REMARK":"","DISPLAY_NM":"Bendungan Hilir","STOP_ROLE":"Reguler","DIR_MAP":" ","INTEGRASI":"BRT_09","SEQ_MAP":"BRT_01:07","INT_NM":"BRT_09:Semanggi"}},{"type":"Feature","id":8,"geometry":{"type":"Point","coordinates":[106.82005213198626,-6.2124233697747879]},"properties":{"FID":8,"STOP_ID":"","STOP_NAME":"Karet","ROUTES":"BRT_01","MODE":"BRT","STATUS":"Eksisting","SOURCE":"Transjakarta, OpenStreetMap","REMARK":"","DISPLAY_NM":"Karet","STOP_ROLE":"Reguler","DIR_MAP":" ","INTEGRASI":"MRT_NS","SEQ_MAP":"BRT_01:08","INT_NM":"MRT_NS:Bendungan Hilir"}},{"type":"Feature","id":9,"geometry":{"type":"Point","coordinates":[106.82310206193097,-6.1965234346881353]},"properties":{"FID":9,"STOP_ID":"","STOP_NAME":"Tosari","ROUTES":"BRT_01","MODE":"BRT","STATUS":"Eksisting","SOURCE":"Transjakarta, OpenStreetMap","REMARK":"","DISPLAY_NM":"Tosari","STOP_ROLE":"Reguler","DIR_MAP":" ","INTEGRASI":"MRT_NS","SEQ_MAP":"BRT_01:10","INT_NM":"MRT_NS:Dukuh Atas"}},{"type":"Feature","id":10,"geometry":{"type":"Point","coordinates":[106.82302638611665,-6.193447172765767]},"properties":{"FID":10,"STOP_ID":"","STOP_NAME":"Bundaran HI","ROUTES":"BRT_01","MODE":"BRT","STATUS":"Eksisting","SOURCE":"Transjakarta, OpenStreetMap","REMARK":"","DISPLAY_NM":"Bundaran HI Astra","STOP_ROLE":"Reguler","DIR_MAP":" ","INTEGRASI":"MRT_NS","SEQ_MAP":"BRT_01:11","INT_NM":"MRT_NS:Bundaharan HI"}},{"type":"Feature","id":11,"geometry":{"type":"Point","coordinates":[106.82302924828819,-6.1880748768704557]},"properties":{"FID":11,"STOP_ID":"","STOP_NAME":"M.H. Thamrin","ROUTES":"BRT_01","MODE":"BRT","STATUS":"Eksisting","SOURCE":"Transjakarta, OpenStreetMap","REMARK":"","DISPLAY_NM":"M.H. Thamrin","STOP_ROLE":"Reguler","DIR_MAP":" ","INTEGRASI":" ","SEQ_MAP":"BRT_01:12","INT_NM":""}},{"type":"Feature","id":12,"geometry":{"type":"Point","coordinates":[106.82297200485831,-6.1823963286252193]},"properties":{"FID":12,"STOP_ID":"","STOP_NAME":"Kebon Sirih","ROUTES":"BRT_01","MODE":"BRT","STATUS":"Eksisting","SOURCE":"Transjakarta, OpenStreetMap","REMARK":"","DISPLAY_NM":"Kebon Sirih","STOP_ROLE":"Reguler","DIR_MAP":" ","INTEGRASI":"MRT_NS;MRT_EW","SEQ_MAP":"BRT_01:13","INT_NM":"MRT_NS:Thamrin;MRT_EW:Thamrin"}},{"type":"Feature","id":13,"geometry":{"type":"Point","coordinates":[106.82288613971348,-6.1761682434530272]},"properties":{"FID":13,"STOP_ID":"","STOP_NAME":"Monumen Nasional","ROUTES":"BRT_01;BRT_02","MODE":"BRT","STATUS":"Eksisting","SOURCE":"Transjakarta, OpenStreetMap","REMARK":"","DISPLAY_NM":"Monumen Nasional","STOP_ROLE":"Transit","DIR_MAP":" ","INTEGRASI":"MRT_NS","SEQ_MAP":"BRT_01:14;BRT_02:21","INT_NM":"MRT_NS:Monumen Nasional"}},{"type":"Feature","id":14,"geometry":{"type":"Point","coordinates":[106.82044047141498,-6.1658134794199686]},"properties":{"FID":14,"STOP_ID":"","STOP_NAME":"Harmoni","ROUTES":"BRT_01;BRT_02;BRT_03;BRT_08;BRT_16","MODE":"BRT","STATUS":"Eksisting","SOURCE":"Transjakarta, OpenStreetMap","REMARK":"","DISPLAY_NM":"Harmoni","STOP_ROLE":"Transit","DIR_MAP":" ","INTEGRASI":"MRT_NS","SEQ_MAP":"BRT_01:15;BRT_02:20;BRT_03:13;BRT_08:24","INT_NM":"MRT_NS:Harmoni"}},{"type":"Feature","id":15,"geometry":{"type":"Point","coordinates":[106.81922233122688,-6.1601825577084028]},"properties":{"FID":15,"STOP_ID":"","STOP_NAME":"Sawah Besar","ROUTES":"BRT_01","MODE":"BRT","STATUS":"Eksisting","SOURCE":"Transjakarta, OpenStreetMap","REMARK":"","DISPLAY_NM":"Sawah Besar","STOP_ROLE":"Reguler","DIR_MAP":" ","INTEGRASI":"MRT_NS","SEQ_MAP":"BRT_01:16","INT_NM":"MRT_NS:Sawah Besar"}},{"type":"Feature","id":16,"geometry":{"type":"Point","coordinates":[106.8173887096808,-6.1522069451084933]},"properties":{"FID":16,"STOP_ID":"","STOP_NAME":"Mangga Besar","ROUTES":"BRT_01","MODE":"BRT","STATUS":"Eksisting","SOURCE":"Transjakarta, OpenStreetMap","REMARK":"","DISPLAY_NM":"Mangga Besar","STOP_ROLE":"Reguler","DIR_MAP":" ","INTEGRASI":"MRT_NS","SEQ_MAP":"BRT_01:17","INT_NM":"MRT_NS:Mangga Besar"}},{"type":"Feature","id":17,"geometry":{"type":"Point","coordinates":[106.81670384928556,-6.149303901804978]},"properties":{"FID":17,"STOP_ID":"","STOP_NAME":"Taman Sari","ROUTES":"BRT_01","MODE":"BRT","STATUS":"Eksisting","SOURCE":"Transjakarta, OpenStreetMap","REMARK":"","DISPLAY_NM":"Taman Sari","STOP_ROLE":"Reguler","DIR_MAP":" ","INTEGRASI":" ","SEQ_MAP":"BRT_01:18","INT_NM":""}},{"type":"Feature","id":18,"geometry":{"type":"Point","coordinates":[106.81516937877339,-6.1434171641245818]},"properties":{"FID":18,"STOP_ID":"","STOP_NAME":"Glodok","ROUTES":"BRT_01","MODE":"BRT","STATUS":"Eksisting","SOURCE":"Transjakarta, OpenStreetMap","REMARK":"","DISPLAY_NM":"Glodok","STOP_ROLE":"Reguler","DIR_MAP":" ","INTEGRASI":"MRT_NS","SEQ_MAP":"BRT_01:19","INT_NM":"MRT_NS:Glodok"}},{"type":"Feature","id":19,"geometry":{"type":"Point","coordinates":[106.81145085327772,-6.1353303729952522]},"properties":{"FID":19,"STOP_ID":"","STOP_NAME":"Kali Besar","ROUTES":"BRT_01;BRT_12;BRT_17","MODE":"BRT","STATUS":"Eksisting","SOURCE":"Transjakarta, OpenStreetMap","REMARK":"","DISPLAY_NM":"Kali Besar","STOP_ROLE":"Transit","DIR_MAP":"BRT_01:Kota","INTEGRASI":" ","SEQ_MAP":"BRT_01:21;BRT_12:23","INT_NM":""}},{"type":"Feature","id":20,"geometry":{"type":"Point","coordinates":[106.81213306453871,-6.1339161961328532]},"properties":{"FID":20,"STOP_ID":"","STOP_NAME":"Museum Sejarah Jakarta","ROUTES":"BRT_01;BRT_12;BRT_17","MODE":"BRT","STATUS":"Eksisting","SOURCE":"Transjakarta, OpenStreetMap","REMARK":"","DISPLAY_NM":"Museum Sejarah Jakarta","STOP_ROLE":"Transit","DIR_MAP":"BRT_01:Kota","INTEGRASI":" ","SEQ_MAP":"BRT_01:22;BRT_12:05","INT_NM":""}},{"type":"Feature","id":21,"geometry":{"type":"Point","coordinates":[106.8150710301659,-6.1368609211390073]},"properties":{"FID":21,"STOP_ID":"","STOP_NAME":"Kota","ROUTES":"BRT_01;BRT_12;BRT_17","MODE":"BRT","STATUS":"Eksisting","SOURCE":"Transjakarta, OpenStreetMap","REMARK":"","DISPLAY_NM":"Kota","STOP_ROLE":"Transit","DIR_MAP":" ","INTEGRASI":"KRL_BO;KRL_TP;MRT_NS","SEQ_MAP":"BRT_01:20;BRT_12:06","INT_NM":"KRL_BO:Jakarta Kota;KRL_TP:Jakarta Kota;MRT_NS:Kota"}},{"type":"Feature","id":22,"geometry":{"type":"Point","coordinates":[106.82229367021394,-6.205242181494901]},"properties":{"FID":22,"STOP_ID":"","STOP_NAME":"Dukuh Atas","ROUTES":"BRT_01","MODE":"BRT","STATUS":"Eksisting","SOURCE":"Transjakarta, OpenStreetMap","REMARK":"","DISPLAY_NM":"Dukuh Atas","STOP_ROLE":"Transit","DIR_MAP":" ","INTEGRASI":"BRT_04;BRT_06;KRL_CK;MRT_NS;LRT_JB_CB;LRT_JB_BK;LRT_JKT_S","SEQ_MAP":"BRT_01:09","INT_NM":"BRT_04:Galunggung;BRT_06:Galunggung;KRL_CK:Sudirman;MRT_NS:Dukuh Atas;LRT_JB_CB:Dukuh Atas;LRT_JB_BK:Dukuh Atas;LRT_JKT_S:Dukuh Atas"}},{"type":"Feature","id":23,"geometry":{"type":"Point","coordinates":[106.90883055798079,-6.1833667371364962]},"properties":{"FID":23,"STOP_ID":"","STOP_NAME":"Pulo Gadung","ROUTES":"BRT_02;BRT_04","MODE":"BRT","STATUS":"Eksisting","SOURCE":"Transjakarta, OpenStreetMap","REMARK":"","DISPLAY_NM":"Pulo Gadung","STOP_ROLE":"Terminus","DIR_MAP":" ","INTEGRASI":"BRT_15;MRT_EW","SEQ_MAP":"BRT_02:01;BRT_04:01","INT_NM":"BRT_15:Simpang Pulo Gadung;MRT_EW:Perintis"}},{"type":"Feature","id":24,"geometry":{"type":"Point","coordinates":[106.89855556929919,-6.1781916905076626]},"properties":{"FID":24,"STOP_ID":"","STOP_NAME":"Bermis","ROUTES":"BRT_02;BRT_15","MODE":"BRT","STATUS":"Eksisting","SOURCE":"Transjakarta, OpenStreetMap","REMARK":"","DISPLAY_NM":"Bermis","STOP_ROLE":"Reguler","DIR_MAP":" ","INTEGRASI":" ","SEQ_MAP":"BRT_02:02","INT_NM":""}},{"type":"Feature","id":25,"geometry":{"type":"Point","coordinates":[106.89261104490043,-6.1746092444077281]},"properties":{"FID":25,"STOP_ID":"","STOP_NAME":"Pulomas","ROUTES":"BRT_02;BRT_15","MODE":"BRT","STATUS":"Eksisting","SOURCE":"Transjakarta, OpenStreetMap","REMARK":"","DISPLAY_NM":"Pulomas","STOP_ROLE":"Reguler","DIR_MAP":" ","INTEGRASI":"MRT_EW;LRT_JKT_S","SEQ_MAP":"BRT_02:03","INT_NM":"MRT_EW:Pakulonan Timur (Pulomas);LRT_JKT_S:Pulomas"}},{"type":"Feature","id":26,"geometry":{"type":"Point","coordinates":[106.88863386267616,-6.1717042034342988]},"properties":{"FID":26,"STOP_ID":"","STOP_NAME":"Perintis Kemerdekaan","ROUTES":"BRT_02;BRT_15","MODE":"BRT","STATUS":"Eksisting","SOURCE":"Transjakarta, OpenStreetMap","REMARK":"","DISPLAY_NM":"Perintis Kemerdekaan","STOP_ROLE":"Reguler","DIR_MAP":" ","INTEGRASI":"MRT_EW","SEQ_MAP":"BRT_02:04","INT_NM":"MRT_EW:Pakulonan Barat"}},{"type":"Feature","id":27,"geometry":{"type":"Point","coordinates":[106.88252486373428,-6.167989745186607]},"properties":{"FID":27,"STOP_ID":"","STOP_NAME":"Pedongkelan","ROUTES":"BRT_02;BRT_15","MODE":"BRT","STATUS":"Eksisting","SOURCE":"Transjakarta, OpenStreetMap","REMARK":"","DISPLAY_NM":"Pedongkelan","STOP_ROLE":"Reguler","DIR_MAP":" ","INTEGRASI":" ","SEQ_MAP":"BRT_02:05","INT_NM":""}},{"type":"Feature","id":28,"geometry":{"type":"Point","coordinates":[106.87596365536507,-6.1665613641174151]},"properties":{"FID":28,"STOP_ID":"","STOP_NAME":"Cempaka Mas","ROUTES":"BRT_02","MODE":"BRT","STATUS":"Eksisting","SOURCE":"Transjakarta, OpenStreetMap","REMARK":"","DISPLAY_NM":"Cempaka Mas","STOP_ROLE":"Transit","DIR_MAP":" ","INTEGRASI":"BRT_10;MRT_EW","SEQ_MAP":"BRT_02:06","INT_NM":"BRT_10:Simpang Cempaka;MRT_EW:Sumur Batu"}},{"type":"Feature","id":29,"geometry":{"type":"Point","coordinates":[106.87037694996835,-6.1686371889422782]},"properties":{"FID":29,"STOP_ID":"","STOP_NAME":"Sumur Batu","ROUTES":"BRT_02","MODE":"BRT","STATUS":"Eksisting","SOURCE":"Transjakarta, OpenStreetMap","REMARK":"","DISPLAY_NM":"Sumur Batu","STOP_ROLE":"Reguler","DIR_MAP":" ","INTEGRASI":" ","SEQ_MAP":"BRT_02:07","INT_NM":""}},{"type":"Feature","id":30,"geometry":{"type":"Point","coordinates":[106.86660742562806,-6.1703909605587786]},"properties":{"FID":30,"STOP_ID":"","STOP_NAME":"Cempaka Baru","ROUTES":"BRT_02","MODE":"BRT","STATUS":"Eksisting","SOURCE":"Transjakarta, OpenStreetMap","REMARK":"","DISPLAY_NM":"Cempaka Baru","STOP_ROLE":"Reguler","DIR_MAP":" ","INTEGRASI":"MRT_EW","SEQ_MAP":"BRT_02:08","INT_NM":"MRT_EW:Sumur Batu"}},{"type":"Feature","id":31,"geometry":{"type":"Point","coordinates":[106.86246238390949,-6.1723170723584868]},"properties":{"FID":31,"STOP_ID":"","STOP_NAME":"Pasar Cempaka Putih","ROUTES":"BRT_02","MODE":"BRT","STATUS":"Eksisting","SOURCE":"Transjakarta, OpenStreetMap","REMARK":"","DISPLAY_NM":"Pasar Cempaka Putih","STOP_ROLE":"Reguler","DIR_MAP":" ","INTEGRASI":" ","SEQ_MAP":"BRT_02:09","INT_NM":""}},{"type":"Feature","id":32,"geometry":{"type":"Point","coordinates":[106.85810054865296,-6.1739168591559892]},"properties":{"FID":32,"STOP_ID":"","STOP_NAME":"Rawa Selatan","ROUTES":"BRT_02","MODE":"BRT","STATUS":"Eksisting","SOURCE":"Transjakarta, OpenStreetMap","REMARK":"","DISPLAY_NM":"Rawa Selatan","STOP_ROLE":"Reguler","DIR_MAP":" ","INTEGRASI":" ","SEQ_MAP":"BRT_02:10","INT_NM":""}},{"type":"Feature","id":33,"geometry":{"type":"Point","coordinates":[106.85472165612829,-6.1744109633115194]},"properties":{"FID":33,"STOP_ID":"","STOP_NAME":"Galur","ROUTES":"BRT_02","MODE":"BRT","STATUS":"Eksisting","SOURCE":"Transjakarta, OpenStreetMap","REMARK":"","DISPLAY_NM":"Galur","STOP_ROLE":"Reguler","DIR_MAP":" ","INTEGRASI":"MRT_EW","SEQ_MAP":"BRT_02:11","INT_NM":"MRT_EW:Galur"}},{"type":"Feature","id":34,"geometry":{"type":"Point","coordinates":[106.84266161278228,-6.1782502010136184]},"properties":{"FID":34,"STOP_ID":"","STOP_NAME":"Pasar Senen","ROUTES":"BRT_02;BRT_14","MODE":"BRT","STATUS":"Eksisting","SOURCE":"Transjakarta, OpenStreetMap","REMARK":"","DISPLAY_NM":"Senen TOYOTA Rangga","STOP_ROLE":"Reguler","DIR_MAP":" ","INTEGRASI":"KAI_KAJJ;KRL_CK;MRT_EW","SEQ_MAP":"BRT_02:12;BRT_14:01","INT_NM":"KAI_KAJJ:Pasar Senen;KRL_CK:Pasar Senen;MRT_EW:Pasar Senen"}},{"type":"Feature","id":35,"geometry":{"type":"Point","coordinates":[106.84021440503174,-6.1762289397671282]},"properties":{"FID":35,"STOP_ID":"","STOP_NAME":"Senen Raya","ROUTES":"BRT_02;BRT_14","MODE":"BRT","STATUS":"Eksisting","SOURCE":"Transjakarta, OpenStreetMap","REMARK":"","DISPLAY_NM":"Senen Raya","STOP_ROLE":"Reguler","DIR_MAP":"BRT_02:Harmoni","INTEGRASI":" ","SEQ_MAP":"BRT_02:13;BRT_14:02","INT_NM":""}},{"type":"Feature","id":36,"geometry":{"type":"Point","coordinates":[106.836782044629,-6.1754884676883304]},"properties":{"FID":36,"STOP_ID":"","STOP_NAME":"RSPAD","ROUTES":"BRT_02","MODE":"BRT","STATUS":"Eksisting","SOURCE":"Transjakarta, OpenStreetMap","REMARK":"","DISPLAY_NM":"RSPAD","STOP_ROLE":"Reguler","DIR_MAP":"BRT_02:Harmoni","INTEGRASI":" ","SEQ_MAP":"BRT_02:14","INT_NM":""}},{"type":"Feature","id":37,"geometry":{"type":"Point","coordinates":[106.83473861980312,-6.1735297278381882]},"properties":{"FID":37,"STOP_ID":"","STOP_NAME":"Pejambon","ROUTES":"BRT_02","MODE":"BRT","STATUS":"Eksisting","SOURCE":"Transjakarta, OpenStreetMap","REMARK":"","DISPLAY_NM":"Pejambon","STOP_ROLE":"Reguler","DIR_MAP":"BRT_02:Harmoni","INTEGRASI":" ","SEQ_MAP":"BRT_02:15","INT_NM":" "}},{"type":"Feature","id":38,"geometry":{"type":"Point","coordinates":[106.83040527058867,-6.1745895183614969]},"properties":{"FID":38,"STOP_ID":"","STOP_NAME":"Gambir","ROUTES":"BRT_02","MODE":"BRT","STATUS":"Eksisting","SOURCE":"Transjakarta, OpenStreetMap","REMARK":"","DISPLAY_NM":"Gambir","STOP_ROLE":"Reguler","DIR_MAP":"BRT_02:Harmoni","INTEGRASI":"KAI_KAJJ;KRL_BO","SEQ_MAP":"BRT_02:16","INT_NM":"KAI_KAJJ:Gambir;KRL_BO:Gambir"}},{"type":"Feature","id":39,"geometry":{"type":"Point","coordinates":[106.83091637292401,-6.1722323484471273]},"properties":{"FID":39,"STOP_ID":"","STOP_NAME":"Istiqlal","ROUTES":"BRT_02","MODE":"BRT","STATUS":"Eksisting","SOURCE":"Transjakarta, OpenStreetMap","REMARK":"","DISPLAY_NM":"Istiqlal","STOP_ROLE":"Reguler","DIR_MAP":"BRT_02:Harmoni","INTEGRASI":" ","SEQ_MAP":"BRT_02:17","INT_NM":""}},{"type":"Feature","id":40,"geometry":{"type":"Point","coordinates":[106.83038779591121,-6.1681092404617139]},"properties":{"FID":40,"STOP_ID":"","STOP_NAME":"Juanda","ROUTES":"BRT_02;BRT_03","MODE":"BRT","STATUS":"Eksisting","SOURCE":"Transjakarta, OpenStreetMap","REMARK":"","DISPLAY_NM":"Juanda","STOP_ROLE":"Reguler","DIR_MAP":"BRT_02:Harmoni","INTEGRASI":"KRL_BO","SEQ_MAP":"BRT_02:18;BRT_03:15","INT_NM":"KRL_BO:Juanda"}},{"type":"Feature","id":41,"geometry":{"type":"Point","coordinates":[106.82822084319233,-6.1677129314617929]},"properties":{"FID":41,"STOP_ID":"","STOP_NAME":"Pecenongan","ROUTES":"BRT_02;BRT_03","MODE":"BRT","STATUS":"Eksisting","SOURCE":"Transjakarta, OpenStreetMap","REMARK":"","DISPLAY_NM":"Pecenongan","STOP_ROLE":"Reguler","DIR_MAP":"BRT_02:Harmoni","INTEGRASI":" ","SEQ_MAP":"BRT_02:19;BRT_03:14","INT_NM":""}},{"type":"Feature","id":42,"geometry":{"type":"Point","coordinates":[106.70591939332698,-6.1545096566787372]},"properties":{"FID":42,"STOP_ID":"","STOP_NAME":"Kalideres","ROUTES":"BRT_03","MODE":"BRT","STATUS":"Eksisting","SOURCE":"Transjakarta, OpenStreetMap","REMARK":"","DISPLAY_NM":"Kalideres","STOP_ROLE":"Reguler","DIR_MAP":" ","INTEGRASI":" ","SEQ_MAP":"BRT_03:01","INT_NM":""}},{"type":"Feature","id":43,"geometry":{"type":"Point","coordinates":[106.71523147864499,-6.1548139310250196]},"properties":{"FID":43,"STOP_ID":"","STOP_NAME":"Pesakih","ROUTES":"BRT_03","MODE":"BRT","STATUS":"Eksisting","SOURCE":"Transjakarta, OpenStreetMap","REMARK":"","DISPLAY_NM":"Pesakih","STOP_ROLE":"Reguler","DIR_MAP":" ","INTEGRASI":" ","SEQ_MAP":"BRT_03:02","INT_NM":""}},{"type":"Feature","id":44,"geometry":{"type":"Point","coordinates":[106.82637375500187,-6.1804924381524895]},"properties":{"FID":44,"STOP_ID":"","STOP_NAME":"Balai Kota","ROUTES":"BRT_02","MODE":"BRT","STATUS":"Eksisting","SOURCE":"Transjakarta, OpenStreetMap","REMARK":"","DISPLAY_NM":"Balai Kota","STOP_ROLE":"Reguler","DIR_MAP":"BRT_02:Pulo Gadung","INTEGRASI":" ","SEQ_MAP":"BRT_02:22","INT_NM":""}},{"type":"Feature","id":45,"geometry":{"type":"Point","coordinates":[106.83108668179703,-6.1789239307377333]},"properties":{"FID":45,"STOP_ID":"","STOP_NAME":"Gambir 2","ROUTES":"BRT_02","MODE":"BRT","STATUS":"Eksisting","SOURCE":"Transjakarta, OpenStreetMap","REMARK":"","DISPLAY_NM":"Gambir 2","STOP_ROLE":"Reguler","DIR_MAP":"BRT_02:Pulo Gadung","INTEGRASI":"KAI_KAJJ;KRL_BO","SEQ_MAP":"BRT_02:23","INT_NM":"KAI_KAJJ:Gambir;KRL_BO:Gambir"}},{"type":"Feature","id":46,"geometry":{"type":"Point","coordinates":[106.83843020627711,-6.1812146394530476]},"properties":{"FID":46,"STOP_ID":"","STOP_NAME":"Kwitang","ROUTES":"BRT_02","MODE":"BRT","STATUS":"Eksisting","SOURCE":"Transjakarta, OpenStreetMap","REMARK":"","DISPLAY_NM":"Kwitang","STOP_ROLE":"Reguler","DIR_MAP":"BRT_02:Pulo Gadung","INTEGRASI":"MRT_EW","SEQ_MAP":"BRT_02:24","INT_NM":"MRT_EW:Kwitang"}},{"type":"Feature","id":47,"geometry":{"type":"Point","coordinates":[106.71934027316419,-6.1530385987422243]},"properties":{"FID":47,"STOP_ID":"","STOP_NAME":"Sumur Bor","ROUTES":"BRT_03","MODE":"BRT","STATUS":"Eksisting","SOURCE":"Transjakarta, OpenStreetMap","REMARK":"","DISPLAY_NM":"Sumur Bor","STOP_ROLE":"Reguler","DIR_MAP":" ","INTEGRASI":" ","SEQ_MAP":"BRT_03:03","INT_NM":""}},{"type":"Feature","id":48,"geometry":{"type":"Point","coordinates":[106.72619167151583,-6.1538922642931384]},"properties":{"FID":48,"STOP_ID":"","STOP_NAME":"Rawa Buaya","ROUTES":"BRT_03","MODE":"BRT","STATUS":"Eksisting","SOURCE":"Transjakarta, OpenStreetMap","REMARK":"","DISPLAY_NM":"Rawa Buaya","STOP_ROLE":"Transit","DIR_MAP":" ","INTEGRASI":"BRT_18","SEQ_MAP":"BRT_03:04","INT_NM":"BRT_18:Flyover Rawa Buaya"}},{"type":"Feature","id":49,"geometry":{"type":"Point","coordinates":[106.73039441776842,-6.1547903881957895]},"properties":{"FID":49,"STOP_ID":"","STOP_NAME":"Jembatan Baru","ROUTES":"BRT_03","MODE":"BRT","STATUS":"Eksisting","SOURCE":"Transjakarta, OpenStreetMap","REMARK":"","DISPLAY_NM":"Jembatan Baru","STOP_ROLE":"Reguler","DIR_MAP":" ","INTEGRASI":" ","SEQ_MAP":"BRT_03:05","INT_NM":""}},{"type":"Feature","id":50,"geometry":{"type":"Point","coordinates":[106.73810555604148,-6.1546022467846422]},"properties":{"FID":50,"STOP_ID":"","STOP_NAME":"Pulo Nangka","ROUTES":"BRT_03","MODE":"BRT","STATUS":"Eksisting","SOURCE":"Transjakarta, OpenStreetMap","REMARK":"","DISPLAY_NM":"Pulo Nangka","STOP_ROLE":"Reguler","DIR_MAP":" ","INTEGRASI":" ","SEQ_MAP":"BRT_03:06","INT_NM":""}},{"type":"Feature","id":51,"geometry":{"type":"Point","coordinates":[106.74935803275739,-6.1554688109838773]},"properties":{"FID":51,"STOP_ID":"","STOP_NAME":"Jembatan Gantung","ROUTES":"BRT_03","MODE":"BRT","STATUS":"Eksisting","SOURCE":"Transjakarta, OpenStreetMap","REMARK":"","DISPLAY_NM":"Jembatan Gantung","STOP_ROLE":"Reguler","DIR_MAP":" ","INTEGRASI":" ","SEQ_MAP":"BRT_03:07","INT_NM":""}},{"type":"Feature","id":52,"geometry":{"type":"Point","coordinates":[106.75787284199532,-6.157153757678131]},"properties":{"FID":52,"STOP_ID":"","STOP_NAME":"Taman Kota","ROUTES":"BRT_03","MODE":"BRT","STATUS":"Eksisting","SOURCE":"Transjakarta, OpenStreetMap","REMARK":"","DISPLAY_NM":"Taman Kota","STOP_ROLE":"Reguler","DIR_MAP":" ","INTEGRASI":"KRL_TA","SEQ_MAP":"BRT_03:08","INT_NM":"KRL_TA:Taman Kota"}},{"type":"Feature","id":53,"geometry":{"type":"Point","coordinates":[106.77510838479887,-6.16334651921904]},"properties":{"FID":53,"STOP_ID":"","STOP_NAME":"Damai","ROUTES":"BRT_03;BRT_08","MODE":"BRT","STATUS":"Eksisting","SOURCE":"Transjakarta, OpenStreetMap","REMARK":"","DISPLAY_NM":"Damai","STOP_ROLE":"Reguler","DIR_MAP":" ","INTEGRASI":" ","SEQ_MAP":"BRT_03:09;BRT_08:17","INT_NM":""}},{"type":"Feature","id":54,"geometry":{"type":"Point","coordinates":[106.7865511337868,-6.1665374852083898]},"properties":{"FID":54,"STOP_ID":"","STOP_NAME":"Jelambar","ROUTES":"BRT_03;BRT_08","MODE":"BRT","STATUS":"Eksisting","SOURCE":"Transjakarta, OpenStreetMap","REMARK":"","DISPLAY_NM":"Jelambar","STOP_ROLE":"Reguler","DIR_MAP":" ","INTEGRASI":" ","SEQ_MAP":"BRT_03:10;BRT_08:18","INT_NM":""}},{"type":"Feature","id":55,"geometry":{"type":"Point","coordinates":[106.78955945358112,-6.1668334846617938]},"properties":{"FID":55,"STOP_ID":"","STOP_NAME":"Grogol","ROUTES":"BRT_03","MODE":"BRT","STATUS":"Eksisting","SOURCE":"Transjakarta, OpenStreetMap","REMARK":"","DISPLAY_NM":"Grogol","STOP_ROLE":"Transit","DIR_MAP":" ","INTEGRASI":"BRT_08;BRT_09;MRT_EW","SEQ_MAP":"BRT_03:11","INT_NM":"BRT_08:Grogol Reformasi;BRT_09:Grogol Reformasi;MRT_EW:Grogol"}},{"type":"Feature","id":56,"geometry":{"type":"Point","coordinates":[106.79675615551312,-6.1662858466076722]},"properties":{"FID":56,"STOP_ID":"","STOP_NAME":"Roxy","ROUTES":"BRT_03","MODE":"BRT","STATUS":"Eksisting","SOURCE":"Transjakarta, OpenStreetMap","REMARK":"","DISPLAY_NM":"Roxy","STOP_ROLE":"Reguler","DIR_MAP":" ","INTEGRASI":" ","SEQ_MAP":"BRT_03:12","INT_NM":""}},{"type":"Feature","id":57,"geometry":{"type":"Point","coordinates":[106.8050046188268,-6.1660313003889016]},"properties":{"FID":57,"STOP_ID":"","STOP_NAME":"Duri Pulo","ROUTES":"BRT_03","MODE":"BRT","STATUS":"Usulan Personal","SOURCE":"Tidak Ada","REMARK":"","DISPLAY_NM":"Duri Pulo","STOP_ROLE":"Reguler","DIR_MAP":" ","INTEGRASI":"MRT_EW","SEQ_MAP":"BRT_03:12a","INT_NM":"MRT_EW:Roxy"}},{"type":"Feature","id":58,"geometry":{"type":"Point","coordinates":[106.81607010108287,-6.1652719546865526]},"properties":{"FID":58,"STOP_ID":"","STOP_NAME":"Petojo Utara","ROUTES":"BRT_03;BRT_16","MODE":"BRT","STATUS":"Usulan Personal","SOURCE":"Tidak Ada","REMARK":"","DISPLAY_NM":"Petojo Utara","STOP_ROLE":"Reguler","DIR_MAP":" ","INTEGRASI":" ","SEQ_MAP":"BRT_03:12b","INT_NM":""}},{"type":"Feature","id":59,"geometry":{"type":"Point","coordinates":[106.83480488945476,-6.1660726960104491]},"properties":{"FID":59,"STOP_ID":"","STOP_NAME":"Pasar Baru","ROUTES":"BRT_03","MODE":"BRT","STATUS":"Eksisting","SOURCE":"Transjakarta, OpenStreetMap","REMARK":"","DISPLAY_NM":"Pasar Baru","STOP_ROLE":"Terminus","DIR_MAP":" ","INTEGRASI":" ","SEQ_MAP":"BRT_03:16","INT_NM":""}},{"type":"Feature","id":60,"geometry":{"type":"Point","coordinates":[106.90592850364321,-6.18741064653981]},"properties":{"FID":60,"STOP_ID":"","STOP_NAME":"Pasar Pulo Gadung","ROUTES":"BRT_04","MODE":"BRT","STATUS":"Eksisting","SOURCE":"Transjakarta, OpenStreetMap","REMARK":"","DISPLAY_NM":"Pasar Pulo Gadung","STOP_ROLE":"Reguler","DIR_MAP":" ","INTEGRASI":" ","SEQ_MAP":"BRT_04:02","INT_NM":""}},{"type":"Feature","id":61,"geometry":{"type":"Point","coordinates":[106.90971027768352,-6.1820676655245661]},"properties":{"FID":61,"STOP_ID":"","STOP_NAME":"Simpang Pulo Gadung","ROUTES":"BRT_15","MODE":"BRT","STATUS":"Usulan Personal","SOURCE":"Tidak Ada","REMARK":"","DISPLAY_NM":"Simpang Pulo Gadung","STOP_ROLE":"Reguler","DIR_MAP":" ","INTEGRASI":"BRT_02;BRT_04;MRT_EW","SEQ_MAP":" ","INT_NM":"BRT_02:Pulo Gadung;BRT_04:Pulo Gadung;MRT_EW:Perintis"}},{"type":"Feature","id":62,"geometry":{"type":"Point","coordinates":[106.89174339690251,-6.1934889346357052]},"properties":{"FID":62,"STOP_ID":"","STOP_NAME":"Pemuda Rawamangun","ROUTES":"BRT_04","MODE":"BRT","STATUS":"Eksisting","SOURCE":"Transjakarta, OpenStreetMap","REMARK":"","DISPLAY_NM":"Pemuda Rawamangun","STOP_ROLE":"Reguler","DIR_MAP":" ","INTEGRASI":"LRT_JKT_S","SEQ_MAP":"BRT_04:05","INT_NM":"LRT_JKT_S:Velodrome"}},{"type":"Feature","id":63,"geometry":{"type":"Point","coordinates":[106.90486390695291,-6.1924080850454608]},"properties":{"FID":63,"STOP_ID":"","STOP_NAME":"Pemuda Merdeka","ROUTES":"BRT_04","MODE":"BRT","STATUS":"Eksisting","SOURCE":"Transjakarta, OpenStreetMap","REMARK":"","DISPLAY_NM":" ","STOP_ROLE":"Reguler","DIR_MAP":" ","INTEGRASI":" ","SEQ_MAP":"BRT_04:03","INT_NM":""}},{"type":"Feature","id":64,"geometry":{"type":"Point","coordinates":[106.89908998512978,-6.1935335104855573]},"properties":{"FID":64,"STOP_ID":"","STOP_NAME":"Layur","ROUTES":"BRT_04","MODE":"BRT","STATUS":"Eksisting","SOURCE":"Transjakarta, OpenStreetMap","REMARK":"","DISPLAY_NM":" ","STOP_ROLE":"Reguler","DIR_MAP":" ","INTEGRASI":" ","SEQ_MAP":"BRT_04:04","INT_NM":""}},{"type":"Feature","id":65,"geometry":{"type":"Point","coordinates":[106.82339919631478,-6.2043880966723908]},"properties":{"FID":65,"STOP_ID":"","STOP_NAME":"Galunggung","ROUTES":"BRT_04;BRT_06","MODE":"BRT","STATUS":"Eksisting","SOURCE":"Transjakarta, OpenStreetMap","REMARK":"","DISPLAY_NM":"Galunggung","STOP_ROLE":"Terminus","DIR_MAP":" ","INTEGRASI":"BRT_01;KRL_CK;MRT_NS;LRT_JB_CB;LRT_JB_BK;LRT_JKT_S","SEQ_MAP":"BRT_04:17;BRT_06:20","INT_NM":"BRT_01:Dukuh Atas;KRL_CK:Sudirman;MRT_NS:Dukuh Atas;LRT_JB_CB:Dukuh Atas;LRT_JB_BK:Dukuh Atas;LRT_JKT_S:Dukuh Atas"}},{"type":"Feature","id":66,"geometry":{"type":"Point","coordinates":[106.86690483713348,-6.2246331438250371]},"properties":{"FID":66,"STOP_ID":"","STOP_NAME":"Kampung Melayu","ROUTES":"BRT_05;BRT_07;BRT_11;BRT_16","MODE":"BRT","STATUS":"Eksisting","SOURCE":"Transjakarta, OpenStreetMap","REMARK":"","DISPLAY_NM":"Kampung Melayu","STOP_ROLE":"Transit","DIR_MAP":" ","INTEGRASI":" ","SEQ_MAP":"BRT_05:18;BRT_07:14;BRT_11:16;BRT_16:01","INT_NM":""}},{"type":"Feature","id":67,"geometry":{"type":"Point","coordinates":[106.85555514270884,-6.1267695735832284]},"properties":{"FID":67,"STOP_ID":"","STOP_NAME":"Jakarta International Stadium","ROUTES":"BRT_14;BRT_15","MODE":"BRT","STATUS":"Eksisting","SOURCE":"Transjakarta, OpenStreetMap","REMARK":"","DISPLAY_NM":"Jakarta International Stadium","STOP_ROLE":"Terminus","DIR_MAP":" ","INTEGRASI":"KRL_TP;LRT_JKT_U","SEQ_MAP":"BRT_14:10;BRT_15:01","INT_NM":"KRL_TP:Jakarta International Stadium;LRT_JKT_U:Jakarta International Stadium"}},{"type":"Feature","id":68,"geometry":{"type":"Point","coordinates":[106.8551810581251,-6.1309264762154054]},"properties":{"FID":68,"STOP_ID":"","STOP_NAME":"Jembatan Item","ROUTES":"BRT_14;BRT_15","MODE":"BRT","STATUS":"Eksisting","SOURCE":"Transjakarta, OpenStreetMap","REMARK":"","DISPLAY_NM":"Jembatan Item","STOP_ROLE":"Reguler","DIR_MAP":" ","INTEGRASI":" ","SEQ_MAP":"BRT_14:09;BRT_15:02","INT_NM":" "}},{"type":"Feature","id":69,"geometry":{"type":"Point","coordinates":[106.85699934846653,-6.1409848196470183]},"properties":{"FID":69,"STOP_ID":"","STOP_NAME":"Danau Sunter","ROUTES":"BRT_12;BRT_14","MODE":"BRT","STATUS":"Eksisting","SOURCE":"Transjakarta, OpenStreetMap","REMARK":"","DISPLAY_NM":"Danau Sunter","STOP_ROLE":"Reguler","DIR_MAP":" ","INTEGRASI":" ","SEQ_MAP":"BRT_12_13;BRT_14:08","INT_NM":" "}},{"type":"Feature","id":70,"geometry":{"type":"Point","coordinates":[106.85804771008436,-6.1467603126427477]},"properties":{"FID":70,"STOP_ID":"","STOP_NAME":"Danau Agung","ROUTES":"BRT_12;BRT_14","MODE":"BRT","STATUS":"Eksisting","SOURCE":" ","REMARK":"","DISPLAY_NM":" ","STOP_ROLE":"Reguler","DIR_MAP":" ","INTEGRASI":" ","SEQ_MAP":"BRT_12:12;BRT_14:07","INT_NM":" "}},{"type":"Feature","id":71,"geometry":{"type":"Point","coordinates":[106.85424992085365,-6.1521683564397325]},"properties":{"FID":71,"STOP_ID":"","STOP_NAME":"Landasan Pacu","ROUTES":"BRT_12;BRT_14","MODE":"BRT","STATUS":"Eksisting","SOURCE":" ","REMARK":"","DISPLAY_NM":" ","STOP_ROLE":"Reguler","DIR_MAP":" ","INTEGRASI":" ","SEQ_MAP":"BRT_12:11;BRT_14:06","INT_NM":" "}}]}