{"type":"FeatureCollection","features":[{"type":"Feature","id":1,"geometry":{"type":"Point","coordinates":[106.77496307908291,-6.2892823653888286]},"properties":{"OBJECTID":1,"STOP_ID":"MRT001","GEOM_ID":"MRT001_01","STOP_NAME":"Lebak Bulus","DISPLAY_NM":"Lebak Bulus Bank Syariah Indonesia","MODE":"MRT","OPERATOR":"MRT Jakarta","STATUS":"Eksisting","STRUCTURE":"ELEVATED","LINES":"MRT_NS","SEQ_MAP":"MRT_NS:01","INTEGRASI":"BRT","INT_NM":"BRT073:Lebak Bulus","SOURCE":"MRT Jakarta; Google Maps","SRC_URL":null,"REMARK":"Terintegrasi dengan Halte Lebak Bulus dan Bus Stop St. MRT Lebak Bulus. Akses BRT melalui sisi barat stasiun.","INT_STOP":"BRT:BRT073","STOP_ROLE":"Terminus"}},{"type":"Feature","id":2,"geometry":{"type":"Point","coordinates":[106.79262857265059,-6.2924422790878793]},"properties":{"OBJECTID":2,"STOP_ID":"MRT002","GEOM_ID":"MRT002_01","STOP_NAME":"Fatmawati","DISPLAY_NM":"Fatmawati Indomaret","MODE":"MRT","OPERATOR":"MRT Jakarta","STATUS":"Eksisting","STRUCTURE":"ELEVATED","LINES":"MRT_NS","SEQ_MAP":"MRT_NS:02","INTEGRASI":null,"INT_NM":null,"SOURCE":"MRT Jakarta; Google Maps","SRC_URL":null,"REMARK":"Terintegrasi dengan layanan bus pengumpan TransJakarta di area stasiun.","INT_STOP":null,"STOP_ROLE":"Reguler"}},{"type":"Feature","id":3,"geometry":{"type":"Point","coordinates":[106.79734518403308,-6.2782849131181706]},"properties":{"OBJECTID":3,"STOP_ID":"MRT003","GEOM_ID":"MRT003_01","STOP_NAME":"Cipete Raya","DISPLAY_NM":"Cipete Raya TUKU","MODE":"MRT","OPERATOR":"MRT Jakarta","STATUS":"Eksisting","STRUCTURE":"ELEVATED","LINES":"MRT_NS","SEQ_MAP":"MRT_NS:03","INTEGRASI":null,"INT_NM":null,"SOURCE":"MRT Jakarta; Google Maps","SRC_URL":null,"REMARK":"Terintegrasi dengan layanan bus TransJakarta non-BRT di sekitar stasiun.","INT_STOP":null,"STOP_ROLE":"Reguler"}},{"type":"Feature","id":4,"geometry":{"type":"Point","coordinates":[106.79732470107416,-6.2666949128399096]},"properties":{"OBJECTID":4,"STOP_ID":"MRT004","GEOM_ID":"MRT004_01","STOP_NAME":"Haji Nawi","DISPLAY_NM":"Haji Nawi","MODE":"MRT","OPERATOR":"MRT Jakarta","STATUS":"Eksisting","STRUCTURE":"ELEVATED","LINES":"MRT_NS","SEQ_MAP":"MRT_NS:04","INTEGRASI":null,"INT_NM":null,"SOURCE":"MRT Jakarta; Google Maps","SRC_URL":null,"REMARK":"Terintegrasi dengan layanan bus TransJakarta non-BRT di sekitar stasiun.","INT_STOP":null,"STOP_ROLE":"Reguler"}},{"type":"Feature","id":5,"geometry":{"type":"Point","coordinates":[106.79715340000945,-6.2557032935720827]},"properties":{"OBJECTID":5,"STOP_ID":"MRT005","GEOM_ID":"MRT005_01","STOP_NAME":"Blok A","DISPLAY_NM":"Blok A Visa","MODE":"MRT","OPERATOR":"MRT Jakarta","STATUS":"Eksisting","STRUCTURE":"ELEVATED","LINES":"MRT_NS","SEQ_MAP":"MRT_NS:05","INTEGRASI":null,"INT_NM":null,"SOURCE":"MRT Jakarta; Google Maps","SRC_URL":null,"REMARK":"Terintegrasi dengan layanan bus TransJakarta non-BRT di sekitar stasiun.","INT_STOP":null,"STOP_ROLE":"Reguler"}},{"type":"Feature","id":6,"geometry":{"type":"Point","coordinates":[106.79812372532973,-6.2445102918164821]},"properties":{"OBJECTID":6,"STOP_ID":"MRT006","GEOM_ID":"MRT006_01","STOP_NAME":"Blok M","DISPLAY_NM":"Blok M BCA","MODE":"MRT","OPERATOR":"MRT Jakarta","STATUS":"Eksisting","STRUCTURE":"ELEVATED","LINES":"MRT_NS","SEQ_MAP":"MRT_NS:06","INTEGRASI":"BRT","INT_NM":"BRT:Blok M","SOURCE":"MRT Jakarta; Google Maps","SRC_URL":null,"REMARK":"Integrasi dengan Halte BRT Blok M melalui kawasan Terminal Blok M.","INT_STOP":"BRT:BRT001","STOP_ROLE":"Transit"}},{"type":"Feature","id":7,"geometry":{"type":"Point","coordinates":[106.79844765483546,-6.2386123130078204]},"properties":{"OBJECTID":7,"STOP_ID":"MRT007","GEOM_ID":"MRT007_01","STOP_NAME":"ASEAN","DISPLAY_NM":"ASEAN Headquarters","MODE":"MRT","OPERATOR":"MRT Jakarta","STATUS":"Eksisting","STRUCTURE":"ELEVATED","LINES":"MRT_NS","SEQ_MAP":"MRT_NS:07","INTEGRASI":"BRT","INT_NM":"BRT:ASEAN;BRT:Kejaksaan Agung;BRT:CSW","SOURCE":"MRT Jakarta; Google Maps","SRC_URL":null,"REMARK":"Terintegrasi dengan kawasan integrasi CSW–ASEAN melalui JPM/skybridge.","INT_STOP":"BRT:BRT002;BRT:BRT003;BRT:BRT133","STOP_ROLE":"Transit"}},{"type":"Feature","id":8,"geometry":{"type":"Point","coordinates":[106.82300839981787,-6.191864400121915]},"properties":{"OBJECTID":8,"STOP_ID":"MRT013","GEOM_ID":"MRT013_01","STOP_NAME":"Bundaran HI","DISPLAY_NM":"Bundaran HI Bank Jakarta","MODE":"MRT","OPERATOR":"MRT Jakarta","STATUS":"Eksisting","STRUCTURE":"UNDERGROUND","LINES":"MRT_NS","SEQ_MAP":"MRT_NS:13","INTEGRASI":"BRT","INT_NM":"BRT:Bundaran HI Astra","SOURCE":"MRT Jakarta; Google Maps","SRC_URL":null,"REMARK":"Terintegrasi fisik langsung dengan Halte Bundaran HI Astra.","INT_STOP":null,"STOP_ROLE":"Reguler"}},{"type":"Feature","id":9,"geometry":{"type":"Point","coordinates":[106.82278800026609,-6.2007956995618656]},"properties":{"OBJECTID":9,"STOP_ID":"MRT012","GEOM_ID":"MRT012_01","STOP_NAME":"Dukuh Atas","DISPLAY_NM":"Dukuh Atas BNI","MODE":"MRT","OPERATOR":"MRT Jakarta","STATUS":"Eksisting","STRUCTURE":"UNDERGROUND","LINES":"MRT_NS","SEQ_MAP":"MRT_NS:12","INTEGRASI":"BRT;KRL_CK;KA_BANDARA;LRT_JB_BK;LRT_JB_CB;LRT_JKT_S","INT_NM":"BRT:Dukuh Atas;BRT:Galunggung;BRT:Tosari;KRL_CK:Sudirman;KRL_CK:BNI City;KA_BANDARA:BNI City;LRT_JB_BK:Dukuh Atas Bank Syariah Indonesia;LRT_JB_CB:Dukuh Atas Bank Syariah Indonesia;LRT_JKT_S:Dukuh Atas (Rencana)","SOURCE":"MRT Jakarta; Google Maps","SRC_URL":null,"REMARK":"Bagian dari simpul transit Pumpunan Moda Dukuh Atas.","INT_STOP":null,"STOP_ROLE":"Transit"}},{"type":"Feature","id":10,"geometry":{"type":"Point","coordinates":[106.82169450020109,-6.2090648003002684]},"properties":{"OBJECTID":10,"STOP_ID":"MRT011","GEOM_ID":"MRT011_01","STOP_NAME":"Setiabudi","DISPLAY_NM":"Setiabudi Astra","MODE":"MRT","OPERATOR":"MRT Jakarta","STATUS":"Eksisting","STRUCTURE":"UNDERGROUND","LINES":"MRT_NS","SEQ_MAP":"MRT_NS:11","INTEGRASI":null,"INT_NM":null,"SOURCE":"MRT Jakarta; Google Maps","SRC_URL":null,"REMARK":null,"INT_STOP":null,"STOP_ROLE":"Reguler"}},{"type":"Feature","id":11,"geometry":{"type":"Point","coordinates":[106.81794840029852,-6.2150263000236805]},"properties":{"OBJECTID":11,"STOP_ID":"MRT010","GEOM_ID":"MRT010_01","STOP_NAME":"Bendungan Hilir","DISPLAY_NM":"Bendungan Hilir","MODE":"MRT","OPERATOR":"MRT Jakarta","STATUS":"Eksisting","STRUCTURE":"UNDERGROUND","LINES":"MRT_NS","SEQ_MAP":"MRT_NS:10","INTEGRASI":"BRT","INT_NM":"BRT:Bendungan Hilir;BRT:Karet","SOURCE":"MRT Jakarta; Google Maps","SRC_URL":null,"REMARK":"Integrasi BRT melalui akses berjalan kaki.","INT_STOP":null,"STOP_ROLE":"Reguler"}},{"type":"Feature","id":12,"geometry":{"type":"Point","coordinates":[106.80862290012681,-6.2223900001982884]},"properties":{"OBJECTID":12,"STOP_ID":"MRT009","GEOM_ID":"MRT009_01","STOP_NAME":"Istora","DISPLAY_NM":"Istora Mandiri","MODE":"MRT","OPERATOR":"MRT Jakarta","STATUS":"Eksisting","STRUCTURE":"UNDERGROUND","LINES":"MRT_NS","SEQ_MAP":"MRT_NS:09","INTEGRASI":"BRT","INT_NM":"BRT:Polda Metro Jaya;BRT:Senayan Bank Jakarta","SOURCE":"MRT Jakarta; Google Maps","SRC_URL":null,"REMARK":"Integrasi BRT melalui akses berjalan kaki.","INT_STOP":"BRT:BRT006;BRT:BRT005","STOP_ROLE":"Reguler"}},{"type":"Feature","id":13,"geometry":{"type":"Point","coordinates":[106.80249260035328,-6.2267336996005156]},"properties":{"OBJECTID":13,"STOP_ID":"MRT008","GEOM_ID":"MRT008_01","STOP_NAME":"Senayan","DISPLAY_NM":"Senayan Mastercard","MODE":"MRT","OPERATOR":"MRT Jakarta","STATUS":"Eksisting","STRUCTURE":"UNDERGROUND","LINES":"MRT_NS","SEQ_MAP":"MRT_NS:08","INTEGRASI":"BRT","INT_NM":"BRT:Bundaran Senayan","SOURCE":"MRT Jakarta; Google Maps","SRC_URL":null,"REMARK":"Integrasi BRT melalui akses berjalan kaki.","INT_STOP":"BRT:BRT005","STOP_ROLE":"Reguler"}}]}