{"type":"FeatureCollection","features":[{"type":"Feature","id":1,"geometry":{"type":"Point","coordinates":[106.77496307908291,-6.2892823653888286]},"properties":{"OBJECTID":1,"STOP_ID":"MRT001","GEOM_ID":"MRT001_01","STOP_NAME":"Lebak Bulus","DISPLAY_NM":"Lebak Bulus Bank Syariah Indonesia","MODE":"MRT","OPERATOR":"MRT Jakarta","STATUS":"Eksisting","STRUCTURE":"ELEVATED","LINES":"MRT_NS","SEQ_MAP":"MRT_NS:01","INTEGRASI":"BRT","INT_NM":"BRT:Lebak Bulus","SOURCE":"MRT Jakarta; Google Maps","SRC_URL":"https://ridershipsurvey.jakartamrt.co.id/sites/default/files/2022-10/Buku%20OM%20MRT%20Jakarta_2022_Ebook.pdf","REMARK":"Terintegrasi dengan Halte Lebak Bulus dan Bus Stop St. MRT Lebak Bulus. Akses BRT melalui sisi barat stasiun.","INT_STOP":"BRT:BRT073","STOP_ROLE":"MRT_NS_EXISTING:Terminus;\nMRT_NS_FULL:Terminus","STN_CODE":"LBB"}},{"type":"Feature","id":2,"geometry":{"type":"Point","coordinates":[106.79262857265059,-6.2924422790878793]},"properties":{"OBJECTID":2,"STOP_ID":"MRT002","GEOM_ID":"MRT002_01","STOP_NAME":"Fatmawati","DISPLAY_NM":"Fatmawati Indomaret","MODE":"MRT","OPERATOR":"MRT Jakarta","STATUS":"Eksisting","STRUCTURE":"ELEVATED","LINES":"MRT_NS","SEQ_MAP":"MRT_NS:02","INTEGRASI":null,"INT_NM":null,"SOURCE":"MRT Jakarta; Google Maps","SRC_URL":"https://ridershipsurvey.jakartamrt.co.id/sites/default/files/2022-10/Buku%20OM%20MRT%20Jakarta_2022_Ebook.pdf","REMARK":"Terintegrasi dengan layanan bus pengumpan TransJakarta di area stasiun.","INT_STOP":null,"STOP_ROLE":"Regular","STN_CODE":"FTM"}},{"type":"Feature","id":3,"geometry":{"type":"Point","coordinates":[106.79734518403308,-6.2782849131181706]},"properties":{"OBJECTID":3,"STOP_ID":"MRT003","GEOM_ID":"MRT003_01","STOP_NAME":"Cipete Raya","DISPLAY_NM":"Cipete Raya TUKU","MODE":"MRT","OPERATOR":"MRT Jakarta","STATUS":"Eksisting","STRUCTURE":"ELEVATED","LINES":"MRT_NS","SEQ_MAP":"MRT_NS:03","INTEGRASI":null,"INT_NM":null,"SOURCE":"MRT Jakarta; Google Maps","SRC_URL":"https://ridershipsurvey.jakartamrt.co.id/sites/default/files/2022-10/Buku%20OM%20MRT%20Jakarta_2022_Ebook.pdf","REMARK":"Terintegrasi dengan layanan bus TransJakarta non-BRT di sekitar stasiun.","INT_STOP":null,"STOP_ROLE":"Regular","STN_CODE":"CPR"}},{"type":"Feature","id":4,"geometry":{"type":"Point","coordinates":[106.79732470107416,-6.2666949128399096]},"properties":{"OBJECTID":4,"STOP_ID":"MRT004","GEOM_ID":"MRT004_01","STOP_NAME":"Haji Nawi","DISPLAY_NM":"Haji Nawi","MODE":"MRT","OPERATOR":"MRT Jakarta","STATUS":"Eksisting","STRUCTURE":"ELEVATED","LINES":"MRT_NS","SEQ_MAP":"MRT_NS:04","INTEGRASI":null,"INT_NM":null,"SOURCE":"MRT Jakarta; Google Maps","SRC_URL":"https://ridershipsurvey.jakartamrt.co.id/sites/default/files/2022-10/Buku%20OM%20MRT%20Jakarta_2022_Ebook.pdf","REMARK":"Terintegrasi dengan layanan bus TransJakarta non-BRT di sekitar stasiun.","INT_STOP":null,"STOP_ROLE":"Regular","STN_CODE":"HJN"}},{"type":"Feature","id":5,"geometry":{"type":"Point","coordinates":[106.79715340000945,-6.2557032935720827]},"properties":{"OBJECTID":5,"STOP_ID":"MRT005","GEOM_ID":"MRT005_01","STOP_NAME":"Blok A","DISPLAY_NM":"Blok A Visa","MODE":"MRT","OPERATOR":"MRT Jakarta","STATUS":"Eksisting","STRUCTURE":"ELEVATED","LINES":"MRT_NS","SEQ_MAP":"MRT_NS:05","INTEGRASI":null,"INT_NM":null,"SOURCE":"MRT Jakarta; Google Maps","SRC_URL":"https://ridershipsurvey.jakartamrt.co.id/sites/default/files/2022-10/Buku%20OM%20MRT%20Jakarta_2022_Ebook.pdf","REMARK":"Terintegrasi dengan layanan bus TransJakarta non-BRT di sekitar stasiun.","INT_STOP":null,"STOP_ROLE":"Regular","STN_CODE":"BLA"}},{"type":"Feature","id":6,"geometry":{"type":"Point","coordinates":[106.79812372532973,-6.2445102918164821]},"properties":{"OBJECTID":6,"STOP_ID":"MRT006","GEOM_ID":"MRT006_01","STOP_NAME":"Blok M","DISPLAY_NM":"Blok M BCA","MODE":"MRT","OPERATOR":"MRT Jakarta","STATUS":"Eksisting","STRUCTURE":"ELEVATED","LINES":"MRT_NS","SEQ_MAP":"MRT_NS:06","INTEGRASI":"BRT","INT_NM":"BRT:Blok M","SOURCE":"MRT Jakarta; Google Maps","SRC_URL":"https://ridershipsurvey.jakartamrt.co.id/sites/default/files/2022-10/Buku%20OM%20MRT%20Jakarta_2022_Ebook.pdf","REMARK":"Integrasi dengan Halte BRT Blok M melalui kawasan Terminal Blok M.","INT_STOP":"BRT:BRT001","STOP_ROLE":"Transit","STN_CODE":"BLM"}},{"type":"Feature","id":7,"geometry":{"type":"Point","coordinates":[106.79844765483546,-6.2386123130078204]},"properties":{"OBJECTID":7,"STOP_ID":"MRT007","GEOM_ID":"MRT007_01","STOP_NAME":"ASEAN","DISPLAY_NM":"ASEAN Headquarters","MODE":"MRT","OPERATOR":"MRT Jakarta","STATUS":"Eksisting","STRUCTURE":"ELEVATED","LINES":"MRT_NS","SEQ_MAP":"MRT_NS:07","INTEGRASI":"BRT","INT_NM":"BRT:ASEAN;BRT:Kejaksaan Agung;BRT:CSW","SOURCE":"MRT Jakarta; Google Maps","SRC_URL":"https://ridershipsurvey.jakartamrt.co.id/sites/default/files/2022-10/Buku%20OM%20MRT%20Jakarta_2022_Ebook.pdf","REMARK":"Terintegrasi dengan kawasan integrasi CSW–ASEAN melalui JPM/skybridge.","INT_STOP":"BRT:BRT002;BRT:BRT003;BRT:BRT133","STOP_ROLE":"Transit","STN_CODE":"SSM"}},{"type":"Feature","id":8,"geometry":{"type":"Point","coordinates":[106.82300839981787,-6.191864400121915]},"properties":{"OBJECTID":8,"STOP_ID":"MRT013","GEOM_ID":"MRT013_01","STOP_NAME":"Bundaran HI","DISPLAY_NM":"Bundaran HI Bank Jakarta","MODE":"MRT","OPERATOR":"MRT Jakarta","STATUS":"Eksisting","STRUCTURE":"UNDERGROUND","LINES":"MRT_NS","SEQ_MAP":"MRT_NS:13","INTEGRASI":"BRT","INT_NM":"BRT:Bundaran HI Astra","SOURCE":"MRT Jakarta; Google Maps","SRC_URL":"https://ridershipsurvey.jakartamrt.co.id/sites/default/files/2022-10/Buku%20OM%20MRT%20Jakarta_2022_Ebook.pdf","REMARK":"Terintegrasi fisik langsung dengan Halte Bundaran HI Astra.","INT_STOP":"BRT:BRT012","STOP_ROLE":"MRT_NS_EXISTING:Terminus;\nMRT_NS_FULL:Transit","STN_CODE":"BHI"}},{"type":"Feature","id":9,"geometry":{"type":"Point","coordinates":[106.82278800026609,-6.2007956995618656]},"properties":{"OBJECTID":9,"STOP_ID":"MRT012","GEOM_ID":"MRT012_01","STOP_NAME":"Dukuh Atas","DISPLAY_NM":"Dukuh Atas BNI","MODE":"MRT","OPERATOR":"MRT Jakarta","STATUS":"Eksisting","STRUCTURE":"UNDERGROUND","LINES":"MRT_NS","SEQ_MAP":"MRT_NS:12","INTEGRASI":"BRT;KRL_CK;KA_BANDARA;LRT_JB_BK;LRT_JB_CB;LRT_JKT_S","INT_NM":"BRT:Dukuh Atas;BRT:Galunggung;BRT:Tosari;KRL_CK:Sudirman;KRL_CK:BNI City;KA_BANDARA:BNI City;LRT_JB_BK:Dukuh Atas Bank Syariah Indonesia;LRT_JB_CB:Dukuh Atas Bank Syariah Indonesia;LRT_JKT_S:Dukuh Atas (Rencana)","SOURCE":"MRT Jakarta; Google Maps","SRC_URL":"https://ridershipsurvey.jakartamrt.co.id/sites/default/files/2022-10/Buku%20OM%20MRT%20Jakarta_2022_Ebook.pdf","REMARK":"Bagian dari simpul transit Pumpunan Moda Dukuh Atas.","INT_STOP":"BRT:BRT010;LRT_JB_BK:LRTJB001;LRT_JB_CB:LRTJB001;LRT_JKT_S:LRTJ013","STOP_ROLE":"Transit","STN_CODE":"DKA"}},{"type":"Feature","id":10,"geometry":{"type":"Point","coordinates":[106.82169450020109,-6.2090648003002684]},"properties":{"OBJECTID":10,"STOP_ID":"MRT011","GEOM_ID":"MRT011_01","STOP_NAME":"Setiabudi","DISPLAY_NM":"Setiabudi Astra","MODE":"MRT","OPERATOR":"MRT Jakarta","STATUS":"Eksisting","STRUCTURE":"UNDERGROUND","LINES":"MRT_NS","SEQ_MAP":"MRT_NS:11","INTEGRASI":null,"INT_NM":null,"SOURCE":"MRT Jakarta; Google Maps","SRC_URL":"https://ridershipsurvey.jakartamrt.co.id/sites/default/files/2022-10/Buku%20OM%20MRT%20Jakarta_2022_Ebook.pdf","REMARK":null,"INT_STOP":null,"STOP_ROLE":"Regular","STN_CODE":"STB"}},{"type":"Feature","id":11,"geometry":{"type":"Point","coordinates":[106.81794840029852,-6.2150263000236805]},"properties":{"OBJECTID":11,"STOP_ID":"MRT010","GEOM_ID":"MRT010_01","STOP_NAME":"Bendungan Hilir","DISPLAY_NM":"Bendungan Hilir","MODE":"MRT","OPERATOR":"MRT Jakarta","STATUS":"Eksisting","STRUCTURE":"UNDERGROUND","LINES":"MRT_NS","SEQ_MAP":"MRT_NS:10","INTEGRASI":"BRT","INT_NM":"BRT:Bendungan Hilir;BRT:Karet","SOURCE":"MRT Jakarta; Google Maps","SRC_URL":"https://ridershipsurvey.jakartamrt.co.id/sites/default/files/2022-10/Buku%20OM%20MRT%20Jakarta_2022_Ebook.pdf","REMARK":"Integrasi BRT melalui akses berjalan kaki.","INT_STOP":"BRT:BRT008;BRT:BRT009","STOP_ROLE":"Regular","STN_CODE":"BNH"}},{"type":"Feature","id":12,"geometry":{"type":"Point","coordinates":[106.80862290012681,-6.2223900001982884]},"properties":{"OBJECTID":12,"STOP_ID":"MRT009","GEOM_ID":"MRT009_01","STOP_NAME":"Istora","DISPLAY_NM":"Istora Mandiri","MODE":"MRT","OPERATOR":"MRT Jakarta","STATUS":"Eksisting","STRUCTURE":"UNDERGROUND","LINES":"MRT_NS","SEQ_MAP":"MRT_NS:09","INTEGRASI":"BRT","INT_NM":"BRT:Polda Metro Jaya;BRT:Senayan Bank Jakarta","SOURCE":"MRT Jakarta; Google Maps","SRC_URL":"https://ridershipsurvey.jakartamrt.co.id/sites/default/files/2022-10/Buku%20OM%20MRT%20Jakarta_2022_Ebook.pdf","REMARK":"Integrasi BRT melalui akses berjalan kaki.","INT_STOP":"BRT:BRT007;BRT:BRT006","STOP_ROLE":"Regular","STN_CODE":"IST"}},{"type":"Feature","id":13,"geometry":{"type":"Point","coordinates":[106.80249260035328,-6.2267336996005156]},"properties":{"OBJECTID":13,"STOP_ID":"MRT008","GEOM_ID":"MRT008_01","STOP_NAME":"Senayan","DISPLAY_NM":"Senayan Mastercard","MODE":"MRT","OPERATOR":"MRT Jakarta","STATUS":"Eksisting","STRUCTURE":"UNDERGROUND","LINES":"MRT_NS","SEQ_MAP":"MRT_NS:08","INTEGRASI":"BRT","INT_NM":"BRT:Bundaran Senayan","SOURCE":"MRT Jakarta; Google Maps","SRC_URL":"https://ridershipsurvey.jakartamrt.co.id/sites/default/files/2022-10/Buku%20OM%20MRT%20Jakarta_2022_Ebook.pdf","REMARK":"Integrasi BRT melalui akses berjalan kaki.","INT_STOP":"BRT:BRT005","STOP_ROLE":"Regular","STN_CODE":"SNY"}},{"type":"Feature","id":14,"geometry":{"type":"Point","coordinates":[106.88149840003121,-6.1106913997882089]},"properties":{"OBJECTID":14,"STOP_ID":"KRL005","GEOM_ID":"KRL005_01","STOP_NAME":"Tanjung Priok","DISPLAY_NM":"Tanjung Priok","MODE":"KRL","OPERATOR":"KAI Commuter","STATUS":"Eksisting","STRUCTURE":"AT_GRADE","LINES":"KRL_TP","SEQ_MAP":"KRL_TP:05","INTEGRASI":"BRT;TERMINAL","INT_NM":"BRT:Tanjung Priok;TERMINAL:Terminal Tanjung Priok","SOURCE":"KAI Commuter; TransJakarta","SRC_URL":"https://kci.id/files/download/documents/Jadwal%20Commuter%20Line%20Jabodetabek%20-%20Februari%202026.pdf","REMARK":"Terminus KRL_TP; juga terhubung dengan Terminal Tanjung Priok dan kawasan Pelabuhan Tanjung Priok.","INT_STOP":null,"STOP_ROLE":"Terminus","STN_CODE":"TPK"}},{"type":"Feature","id":15,"geometry":{"type":"Point","coordinates":[106.81483386189325,-6.1375768544882021]},"properties":{"OBJECTID":15,"STOP_ID":"KRL001","GEOM_ID":"KRL001_01","STOP_NAME":"Jakarta Kota","DISPLAY_NM":"Jakarta Kota","MODE":"KRL","OPERATOR":"KAI Commuter","STATUS":"Eksisting","STRUCTURE":"AT_GRADE","LINES":"KRL_TP;KRL_BO","SEQ_MAP":"KRL_TP:01;KRL_BO:01","INTEGRASI":"BRT;MRT_NS","INT_NM":"BRT:Kota;MRT_NS:Kota","SOURCE":"KAI Commuter; OpenStreetMap","SRC_URL":"https://kci.id/files/download/documents/Jadwal%20Commuter%20Line%20Jabodetabek%20-%20Februari%202026.pdf","REMARK":"STOP_ID KRL001 dipertahankan dari master KRL_TP. Stasiun yang sama dipakai oleh KRL_TP dan KRL_BO; SEQ_MAP ditambah KRL_BO:01.","INT_STOP":"BRT:BRT023;MRT_NS:MRT020","STOP_ROLE":"Transit-Terminus","STN_CODE":"JAKK"}},{"type":"Feature","id":16,"geometry":{"type":"Point","coordinates":[106.8451373995714,-6.1281150000071989]},"properties":{"OBJECTID":16,"STOP_ID":"KRL003","GEOM_ID":"KRL003_01","STOP_NAME":"Ancol","DISPLAY_NM":"Ancol","MODE":"KRL","OPERATOR":"KAI Commuter","STATUS":"Eksisting","STRUCTURE":"AT_GRADE","LINES":"KRL_TP","SEQ_MAP":"KRL_TP:03","INTEGRASI":null,"INT_NM":null,"SOURCE":"KAI Commuter","SRC_URL":"https://kci.id/files/download/documents/Jadwal%20Commuter%20Line%20Jabodetabek%20-%20Februari%202026.pdf","REMARK":null,"INT_STOP":null,"STOP_ROLE":"Regular","STN_CODE":"AC"}},{"type":"Feature","id":17,"geometry":{"type":"Point","coordinates":[106.82904244155549,-6.1327443654600415]},"properties":{"OBJECTID":17,"STOP_ID":"KRL002","GEOM_ID":"KRL002_01","STOP_NAME":"Kampung Bandan","DISPLAY_NM":"Kampung Bandan","MODE":"KRL","OPERATOR":"KAI Commuter","STATUS":"Eksisting","STRUCTURE":"MIXED","LINES":"KRL_TP;KRL_CK","SEQ_MAP":"KRL_TP:02;KRL_CK:07","INTEGRASI":"BRT","INT_NM":"BRT:Pademangan;BRT:Mangga Dua","SOURCE":"KAI Commuter; TransJakarta","SRC_URL":"https://kci.id/files/download/documents/Jadwal%20Commuter%20Line%20Jabodetabek%20-%20Februari%202026.pdf","REMARK":"STOP_ID KRL002 dipertahankan dari Lin Tanjung Priok. LINES ditambah KRL_CK; SEQ_MAP menjadi KRL_TP:02;KRL_CK:07. STRUCTURE=MIXED dipertahankan karena peron/jalur berada pada level struktur berbeda.","INT_STOP":null,"STOP_ROLE":"Transit-Terminus","STN_CODE":"KPB"}},{"type":"Feature","id":18,"geometry":{"type":"Point","coordinates":[106.86135959996562,-6.1228211003135016]},"properties":{"OBJECTID":18,"STOP_ID":"KRL004","GEOM_ID":"KRL004_01","STOP_NAME":"Jakarta International Stadium","DISPLAY_NM":"Jakarta International Stadium","MODE":"KRL","OPERATOR":"KAI Commuter","STATUS":"Eksisting","STRUCTURE":"AT_GRADE","LINES":"KRL_TP","SEQ_MAP":"KRL_TP:04","INTEGRASI":"BRT","INT_NM":"BRT:Jakarta International Stadium","SOURCE":"KAI Commuter; TransJakarta","SRC_URL":"https://kci.id/informasi-publik/berita/menhub-ri-dudy-purwagandhi-dan-gubernur-jakarta-pramono-resmikan-stasiun-jis","REMARK":"Mulai melayani naik-turun pengguna Commuter Line Tanjung Priok pada 22 Juni 2026. Layanan berlaku dari dan menuju Stasiun JIS pada lintas Tanjung Priok–Jakarta Kota; pada saat pembukaan awal, penyempurnaan fasilitas menuju kondisi ultimate masih berlanjut","INT_STOP":null,"STOP_ROLE":"Regular","STN_CODE":null}},{"type":"Feature","id":19,"geometry":{"type":"Point","coordinates":[106.82313664404097,-6.1860731078875801]},"properties":{"OBJECTID":19,"STOP_ID":"MRT014","GEOM_ID":"MRT014_01","STOP_NAME":"Thamrin","DISPLAY_NM":"Thamrin","MODE":"MRT","OPERATOR":"MRT Jakarta","STATUS":"Dalam Pembangunan","STRUCTURE":"UNDERGROUND","LINES":"MRT_NS","SEQ_MAP":"MRT_NS:14","INTEGRASI":"BRT","INT_NM":"BRT:Kebon Sirih","SOURCE":"MRT Jakarta; RTRW DKI Jakarta; RDTR DKI Jakarta; JUTPI-3","SRC_URL":"https://www.jakartamrt.co.id/id/proyek/fase-2","REMARK":"Direncanakan sebagai interchange Lin Utara–Selatan dan Lin Timur–Barat.","INT_STOP":"BRT:BRT014","STOP_ROLE":"Transit","STN_CODE":null}},{"type":"Feature","id":20,"geometry":{"type":"Point","coordinates":[106.82339338159932,-6.1780491110775415]},"properties":{"OBJECTID":20,"STOP_ID":"MRT015","GEOM_ID":"MRT015_01","STOP_NAME":"Monas","DISPLAY_NM":"Monas","MODE":"MRT","OPERATOR":"MRT Jakarta","STATUS":"Dalam Pembangunan","STRUCTURE":"UNDERGROUND","LINES":"MRT_NS","SEQ_MAP":"MRT_NS:15","INTEGRASI":"BRT","INT_NM":"BRT:Monumen Nasional","SOURCE":"MRT Jakarta; RTRW DKI Jakarta; RDTR DKI Jakarta; JUTPI3","SRC_URL":"https://www.jakartamrt.co.id/id/proyek/fase-2","REMARK":"Direncanakan terintegrasi langsung dengan Halte Monumen Nasional dan kawasan Taman Monas.","INT_STOP":"BRT:BRT015","STOP_ROLE":"Transit","STN_CODE":null}},{"type":"Feature","id":21,"geometry":{"type":"Point","coordinates":[106.82038216270672,-6.1662086999714916]},"properties":{"OBJECTID":21,"STOP_ID":"MRT016","GEOM_ID":"MRT016_01","STOP_NAME":"Harmoni","DISPLAY_NM":"Harmoni","MODE":"MRT","OPERATOR":"MRT Jakarta","STATUS":"Dalam Pembangunan","STRUCTURE":"UNDERGROUND","LINES":"MRT_NS","SEQ_MAP":"MRT_NS:16","INTEGRASI":"BRT","INT_NM":"BRT:Harmoni","SOURCE":"MRT Jakarta; RTRW DKI Jakarta; RDTR DKI Jakarta; JUTPI3","SRC_URL":"https://www.jakartamrt.co.id/id/proyek/fase-2","REMARK":"Direncanakan terintegrasi dengan Halte Harmoni.","INT_STOP":"BRT:BRT016","STOP_ROLE":"Transit","STN_CODE":null}},{"type":"Feature","id":22,"geometry":{"type":"Point","coordinates":[106.81934647466016,-6.1615886820719652]},"properties":{"OBJECTID":22,"STOP_ID":"MRT017","GEOM_ID":"MRT017_01","STOP_NAME":"Sawah Besar","DISPLAY_NM":"Sawah Besar","MODE":"MRT","OPERATOR":"MRT Jakarta","STATUS":"Dalam Pembangunan","STRUCTURE":"UNDERGROUND","LINES":"MRT_NS","SEQ_MAP":"MRT_NS:17","INTEGRASI":"BRT","INT_NM":"BRT:Sawah Besar","SOURCE":"MRT Jakarta; RTRW DKI Jakarta; RDTR DKI Jakarta; JUTPI3","SRC_URL":"https://www.jakartamrt.co.id/id/proyek/fase-2","REMARK":"Direncanakan terintegrasi langsung dengan Halte Sawah Besar.","INT_STOP":"BRT:BRT017","STOP_ROLE":"Transit","STN_CODE":null}},{"type":"Feature","id":23,"geometry":{"type":"Point","coordinates":[106.81719776136765,-6.1507671389922507]},"properties":{"OBJECTID":23,"STOP_ID":"MRT018","GEOM_ID":"MRT018_01","STOP_NAME":"Mangga Besar","DISPLAY_NM":"Mangga Besar","MODE":"MRT","OPERATOR":"MRT Jakarta","STATUS":"Dalam Pembangunan","STRUCTURE":"UNDERGROUND","LINES":"MRT_NS","SEQ_MAP":"MRT_NS:18","INTEGRASI":"BRT","INT_NM":"BRT:Mangga Besar","SOURCE":"MRT Jakarta; RTRW DKI Jakarta; RDTR DKI Jakarta; JUTPI3","SRC_URL":"https://www.jakartamrt.co.id/id/proyek/fase-2","REMARK":"Direncanakan terintegrasi langsung dengan Halte Mangga Besar.","INT_STOP":"BRT:BRT018","STOP_ROLE":"Transit","STN_CODE":null}},{"type":"Feature","id":24,"geometry":{"type":"Point","coordinates":[106.81560516724471,-6.144989929241774]},"properties":{"OBJECTID":24,"STOP_ID":"MRT019","GEOM_ID":"MRT019_01","STOP_NAME":"Glodok","DISPLAY_NM":"Glodok","MODE":"MRT","OPERATOR":"MRT Jakarta","STATUS":"Dalam Pembangunan","STRUCTURE":"UNDERGROUND","LINES":"MRT_NS","SEQ_MAP":"MRT_NS:19","INTEGRASI":"BRT","INT_NM":"BRT:Glodok","SOURCE":"MRT Jakarta; RTRW DKI Jakarta; RDTR DKI Jakarta; JUTPI3","SRC_URL":"https://www.jakartamrt.co.id/id/proyek/fase-2","REMARK":"Direncanakan terintegrasi dengan Halte Glodok.","INT_STOP":"BRT:BRT020","STOP_ROLE":"Transit","STN_CODE":null}},{"type":"Feature","id":25,"geometry":{"type":"Point","coordinates":[106.81399270799716,-6.1390939784043326]},"properties":{"OBJECTID":25,"STOP_ID":"MRT020","GEOM_ID":"MRT020_01","STOP_NAME":"Kota","DISPLAY_NM":"Kota","MODE":"MRT","OPERATOR":"MRT Jakarta","STATUS":"Dalam Pembangunan","STRUCTURE":"UNDERGROUND","LINES":"MRT_NS","SEQ_MAP":"MRT_NS:20","INTEGRASI":"BRT;KRL_BO;KRL_TP","INT_NM":"BRT:Kota;KRL_BO:Jakarta Kota;KRL_TP:Jakarta Kota","SOURCE":"MRT Jakarta; RTRW DKI Jakarta; RDTR DKI Jakarta; JUTPI3","SRC_URL":"https://www.jakartamrt.co.id/id/proyek/fase-2","REMARK":"Direncanakan terintegrasi dengan Halte Kota dan Stasiun Jakarta Kota. Terminus Fase 2A.","INT_STOP":"BRT:BRT023;KRL_BO:KRL001;KRL_TP:KRL001","STOP_ROLE":"MRT_NS_PHASE2A:Terminus;MRT_NS_FULL:Transit","STN_CODE":null}},{"type":"Feature","id":26,"geometry":{"type":"Point","coordinates":[106.90602400040734,-6.1594082002281993]},"properties":{"OBJECTID":26,"STOP_ID":"LRTJ002","GEOM_ID":"LRTJ002_01","STOP_NAME":"Boulevard Utara","DISPLAY_NM":"Boulevard Utara Summarecon Mall","MODE":"LRT","OPERATOR":"LRT Jakarta","STATUS":"Eksisting","STRUCTURE":"ELEVATED","LINES":"LRT_JKT_S","SEQ_MAP":"LRT_JKT_S:02","INTEGRASI":null,"INT_NM":null,"SOURCE":"LRT Jakarta; Pemprov DKI Jakarta","SRC_URL":"https://lrtjakarta.co.id/gubernur_dki_jakarta_resmikan_hak_penamaan_stasiun_lrt_jakarta_boulevard_utara_summarecon_mall_dan_fasilitas_connecting_bridge_pers446.html","REMARK":"DISPLAY_NM mengikuti hak penamaan resmi Boulevard Utara Summarecon Mall. STOP_NAME tetap nama dasar stasiun.","INT_STOP":null,"STOP_ROLE":"LRT_JKT_S_EXISTING:Regular;LRT_JKT_S_FULL:Regular","STN_CODE":"BU"}},{"type":"Feature","id":27,"geometry":{"type":"Point","coordinates":[106.8998731996885,-6.1691933996556259]},"properties":{"OBJECTID":27,"STOP_ID":"LRTJ003","GEOM_ID":"LRTJ003_01","STOP_NAME":"Boulevard Selatan","DISPLAY_NM":"Boulevard Selatan","MODE":"LRT","OPERATOR":"LRT Jakarta","STATUS":"Eksisting","STRUCTURE":"ELEVATED","LINES":"LRT_JKT_S","SEQ_MAP":"LRT_JKT_S:03","INTEGRASI":"BRT","INT_NM":"BRT:Pulo Mas","SOURCE":"LRT Jakarta; Pemprov DKI Jakarta","SRC_URL":"https://www.jakarta.go.id/siaran-pers/6984-SP-HMS-08-2026","REMARK":null,"INT_STOP":null,"STOP_ROLE":"LRT_JKT_S_EXISTING:Regular;LRT_JKT_S_FULL:Regular","STN_CODE":"BS"}},{"type":"Feature","id":28,"geometry":{"type":"Point","coordinates":[106.89339289996241,-6.177310499679777]},"properties":{"OBJECTID":28,"STOP_ID":"LRTJ004","GEOM_ID":"LRTJ004_01","STOP_NAME":"Pulomas","DISPLAY_NM":"Pulomas","MODE":"LRT","OPERATOR":"LRT Jakarta","STATUS":"Eksisting","STRUCTURE":"ELEVATED","LINES":"LRT_JKT_S","SEQ_MAP":"LRT_JKT_S:04","INTEGRASI":"BRT","INT_NM":"BRT:Pulomas","SOURCE":"LRT Jakarta; Pemprov DKI Jakarta","SRC_URL":"https://www.jakarta.go.id/siaran-pers/6984-SP-HMS-08-2026","REMARK":null,"INT_STOP":null,"STOP_ROLE":"LRT_JKT_S_EXISTING:Regular;LRT_JKT_S_FULL:Regular","STN_CODE":"PLA"}},{"type":"Feature","id":29,"geometry":{"type":"Point","coordinates":[106.89135359998869,-6.1835533999694121]},"properties":{"OBJECTID":29,"STOP_ID":"LRTJ005","GEOM_ID":"LRTJ005_01","STOP_NAME":"Equestrian","DISPLAY_NM":"Equestrian","MODE":"LRT","OPERATOR":"LRT Jakarta","STATUS":"Eksisting","STRUCTURE":"ELEVATED","LINES":"LRT_JKT_S","SEQ_MAP":"LRT_JKT_S:05","INTEGRASI":null,"INT_NM":null,"SOURCE":"LRT Jakarta; Pemprov DKI Jakarta","SRC_URL":"https://www.jakarta.go.id/siaran-pers/6984-SP-HMS-08-2026","REMARK":null,"INT_STOP":null,"STOP_ROLE":"LRT_JKT_S_EXISTING:Regular;LRT_JKT_S_FULL:Regular","STN_CODE":"EQS"}},{"type":"Feature","id":30,"geometry":{"type":"Point","coordinates":[106.89117709994326,-6.1921316003929974]},"properties":{"OBJECTID":30,"STOP_ID":"LRTJ006","GEOM_ID":"LRTJ006_01","STOP_NAME":"Velodrome","DISPLAY_NM":"Velodrome","MODE":"LRT","OPERATOR":"LRT Jakarta","STATUS":"Eksisting","STRUCTURE":"ELEVATED","LINES":"LRT_JKT_S","SEQ_MAP":"LRT_JKT_S:06","INTEGRASI":"BRT","INT_NM":"BRT:Pemuda Rawamangun","SOURCE":"LRT Jakarta; Pemprov DKI Jakarta","SRC_URL":"https://www.lrtjakarta.co.id/index.php?action=pers.detail&id_news=348","REMARK":"Terintegrasi secara fisik dengan Halte Pemuda Rawamangun melalui skybridge. Pada layanan Kelapa Gading–Manggarai, Velodrome berfungsi sebagai stasiun transit/interchange, bukan lagi terminus.","INT_STOP":null,"STOP_ROLE":"LRT_JKT_S_EXISTING:Transit;LRT_JKT_S_FULL:Transit","STN_CODE":"VLD"}},{"type":"Feature","id":31,"geometry":{"type":"Point","coordinates":[106.91420909997004,-6.1572135001028983]},"properties":{"OBJECTID":31,"STOP_ID":"LRTJ001","GEOM_ID":"LRTJ001_01","STOP_NAME":"Kelapa Gading","DISPLAY_NM":"Kelapa Gading","MODE":"LRT","OPERATOR":"LRT Jakarta","STATUS":"Eksisting","STRUCTURE":"ELEVATED","LINES":"LRT_JKT_S","SEQ_MAP":"LRT_JKT_S:01","INTEGRASI":null,"INT_NM":null,"SOURCE":"LRT Jakarta; Pemprov DKI Jakarta","SRC_URL":"https://www.jakarta.go.id/siaran-pers/6984-SP-HMS-08-2026","REMARK":"Nama publik terbaru Kelapa Gading; sebelumnya Pegangsaan Dua. Berfungsi sebagai terminus utara pada layanan Kelapa Gading–Manggarai maupun pada skenario jaringan penuh hingga Dukuh Atas.","INT_STOP":null,"STOP_ROLE":"LRT_JKT_S_EXISTING:Terminus;LRT_JKT_S_FULL:Terminus","STN_CODE":"PGD"}},{"type":"Feature","id":32,"geometry":{"type":"Point","coordinates":[106.8456476002566,-6.2086431000989251]},"properties":{"OBJECTID":32,"STOP_ID":"LRTJ011","GEOM_ID":"LRTJ011_01","STOP_NAME":"Manggarai","DISPLAY_NM":"Manggarai","MODE":"LRT","OPERATOR":"LRT Jakarta","STATUS":"Eksisting","STRUCTURE":"ELEVATED","LINES":"LRT_JKT_S","SEQ_MAP":"LRT_JKT_S:11","INTEGRASI":"BRT;KRL_CK;KRL_BO;KA_BANDARA","INT_NM":"BRT:Manggarai;KRL_CK:Manggarai;KRL_BO:Manggarai;KA_BANDARA:Manggarai","SOURCE":"Pemprov DKI Jakarta; BeritaJakarta","SRC_URL":"https://www.jakarta.go.id/siaran-pers/6984-SP-HMS-08-2026","REMARK":"Terminus selatan layanan eksisting Kelapa Gading–Manggarai. Terintegrasi dengan TransJakarta, KRL Commuter Line, dan KA Bandara; pada skenario Phase 1C ke Dukuh Atas, Manggarai menjadi stasiun transit.","INT_STOP":null,"STOP_ROLE":"LRT_JKT_S_EXISTING:Terminus;LRT_JKT_S_FULL:Transit","STN_CODE":null}},{"type":"Feature","id":33,"geometry":{"type":"Point","coordinates":[106.85012120043314,-6.2021671000316019]},"properties":{"OBJECTID":33,"STOP_ID":"LRTJ010","GEOM_ID":"LRTJ010_01","STOP_NAME":"Proklamasi","DISPLAY_NM":"Proklamasi","MODE":"LRT","OPERATOR":"LRT Jakarta","STATUS":"Eksisting","STRUCTURE":"ELEVATED","LINES":"LRT_JKT_S","SEQ_MAP":"LRT_JKT_S:10","INTEGRASI":"BRT","INT_NM":null,"SOURCE":"Pemprov DKI Jakarta; BeritaJakarta","SRC_URL":"https://www.jakarta.go.id/siaran-pers/6984-SP-HMS-08-2026","REMARK":"Nama terbaru Proklamasi; pada tahap sebelumnya lokasi/stasiun kerja ini disebut Matraman. Kini termasuk dalam layanan eksisting Kelapa Gading–Manggarai. Integrasi TransJakarta terkonfirmasi, tetapi halte spesifik masih perlu diverifikasi.","INT_STOP":null,"STOP_ROLE":"LRT_JKT_S_EXISTING:Regular;LRT_JKT_S_FULL:Regular","STN_CODE":null}},{"type":"Feature","id":34,"geometry":{"type":"Point","coordinates":[106.85887990018733,-6.1958120003234853]},"properties":{"OBJECTID":34,"STOP_ID":"LRTJ009","GEOM_ID":"LRTJ009_01","STOP_NAME":"Matraman","DISPLAY_NM":"Matraman","MODE":"LRT","OPERATOR":"LRT Jakarta","STATUS":"Eksisting","STRUCTURE":"ELEVATED","LINES":"LRT_JKT_S","SEQ_MAP":"LRT_JKT_S:09","INTEGRASI":"BRT","INT_NM":"BRT:Pasar Genjing","SOURCE":"Pemprov DKI Jakarta; BeritaJakarta","SRC_URL":"https://www.jakarta.go.id/siaran-pers/6984-SP-HMS-08-2026","REMARK":"Nama terbaru Matraman; pada tahap sebelumnya pernah disebut Pasar Pramuka/Kayu Manis. Kini termasuk dalam layanan eksisting Kelapa Gading–Manggarai dan terhubung dengan TransJakarta di kawasan Pasar Genjing.","INT_STOP":null,"STOP_ROLE":"LRT_JKT_S_EXISTING:Regular;LRT_JKT_S_FULL:Regular","STN_CODE":null}},{"type":"Feature","id":35,"geometry":{"type":"Point","coordinates":[106.87088899982751,-6.1920000997247939]},"properties":{"OBJECTID":35,"STOP_ID":"LRTJ008","GEOM_ID":"LRTJ008_01","STOP_NAME":"Pramuka","DISPLAY_NM":"Pramuka","MODE":"LRT","OPERATOR":"LRT Jakarta","STATUS":"Eksisting","STRUCTURE":"ELEVATED","LINES":"LRT_JKT_S","SEQ_MAP":"LRT_JKT_S:08","INTEGRASI":"BRT","INT_NM":"BRT:Simpang Pramuka;BRT:Pemuda Pramuka","SOURCE":"Pemprov DKI Jakarta; BeritaJakarta","SRC_URL":"https://www.jakarta.go.id/siaran-pers/6984-SP-HMS-08-2026","REMARK":"Nama terbaru Pramuka; sebelumnya Pramuka BPKP. Kini termasuk dalam layanan eksisting Kelapa Gading–Manggarai dan memiliki koneksi TransJakarta di kawasan Pramuka.","INT_STOP":null,"STOP_ROLE":"LRT_JKT_S_EXISTING:Regular;LRT_JKT_S_FULL:Regular","STN_CODE":null}},{"type":"Feature","id":36,"geometry":{"type":"Point","coordinates":[106.88250529987977,-6.1931386000662769]},"properties":{"OBJECTID":36,"STOP_ID":"LRTJ007","GEOM_ID":"LRTJ007_01","STOP_NAME":"Rawamangun","DISPLAY_NM":"Rawamangun","MODE":"LRT","OPERATOR":"LRT Jakarta","STATUS":"Eksisting","STRUCTURE":"ELEVATED","LINES":"LRT_JKT_S","SEQ_MAP":"LRT_JKT_S:07","INTEGRASI":"BRT","INT_NM":"BRT:Kayu Jati","SOURCE":"Pemprov DKI Jakarta; BeritaJakarta","SRC_URL":"https://www.jakarta.go.id/siaran-pers/6984-SP-HMS-08-2026","REMARK":"Nama terbaru Rawamangun; sebelumnya Pemuda Rawamangun. Kini termasuk dalam layanan eksisting Kelapa Gading–Manggarai dan terhubung dengan layanan TransJakarta di area Kayu Jati.","INT_STOP":null,"STOP_ROLE":"LRT_JKT_S_EXISTING:Regular;LRT_JKT_S_FULL:Regular","STN_CODE":null}},{"type":"Feature","id":37,"geometry":{"type":"Point","coordinates":[106.83443411284406,-6.2052760473516742]},"properties":{"OBJECTID":37,"STOP_ID":"LRTJ012","GEOM_ID":"LRTJ012_01","STOP_NAME":"Guntur","DISPLAY_NM":"Guntur","MODE":"LRT","OPERATOR":"LRT Jakarta","STATUS":"Usulan","STRUCTURE":"ELEVATED","LINES":"LRT_JKT_S","SEQ_MAP":"LRT_JKT_S:11a","INTEGRASI":"BRT","INT_NM":"BRT:Halimun","SOURCE":"JUTPI3","SRC_URL":null,"REMARK":"Stasiun Guntur dipertahankan sebagai Usulan berbasis JUTPI3. Baseline resmi LRT Jakarta Phase 1C Manggarai–Dukuh Atas yang dipublikasikan Jakarta Investment Centre menyebut satu stasiun utama di Dukuh Atas.","INT_STOP":null,"STOP_ROLE":"LRT_JKT_S_JUTPI3:Regular","STN_CODE":null}},{"type":"Feature","id":38,"geometry":{"type":"Point","coordinates":[106.82041388809051,-6.2024015541883273]},"properties":{"OBJECTID":38,"STOP_ID":"LRTJ013","GEOM_ID":"LRTJ013_01","STOP_NAME":"Dukuh Atas","DISPLAY_NM":"Dukuh Atas","MODE":"LRT","OPERATOR":"LRT Jakarta","STATUS":"Rencana","STRUCTURE":"ELEVATED","LINES":"LRT_JKT_S","SEQ_MAP":"LRT_JKT_S:12","INTEGRASI":"BRT;KRL_CK;KA_BANDARA;LRT_JB_BK;LRT_JB_CB;MRT_NS","INT_NM":"BRT:Dukuh Atas;BRT:Galunggung;BRT:Tosari;KRL_CK:Sudirman;KRL_CK:BNI City;KA_BANDARA:BNI City;LRT_JB_BK:Dukuh Atas Bank Syariah Indonesia;LRT_JB_CB:Dukuh Atas Bank Syariah Indonesia;MRT_NS:Dukuh Atas","SOURCE":"Jakarta Investment Centre; JUTPI3","SRC_URL":"https://invest.jakarta.go.id/potential-projects/35/transportation/143/lrt-jakarta-phase-1c-manggarai-dukuh-atas","REMARK":"Phase 1C Manggarai–Dukuh Atas merupakan rencana resmi sepanjang sekitar 2,4 km dengan satu stasiun utama di Dukuh Atas. Stasiun ini direncanakan menjadi terminus selatan LRT_JKT_S_FULL dan terhubung dengan simpul multimoda Dukuh Atas.","INT_STOP":null,"STOP_ROLE":"LRT_JKT_S_FULL:Terminus","STN_CODE":null}},{"type":"Feature","id":39,"geometry":{"type":"Point","coordinates":[106.85707179972383,-6.2434845997344155]},"properties":{"OBJECTID":39,"STOP_ID":"LRTJB006","GEOM_ID":"LRTJB006_01","STOP_NAME":"Cikoko","DISPLAY_NM":"Cikoko","MODE":"LRT","OPERATOR":"LRT Jabodebek","STATUS":"Eksisting","STRUCTURE":"ELEVATED","LINES":"LRT_JB_BK;LRT_JB_CB","SEQ_MAP":"LRT_JB_BK:06;LRT_JB_CB:06","INTEGRASI":"BRT;KRL_BO","INT_NM":"BRT:Cikoko;KRL_BO:Cawang","SOURCE":"LRT Jabodebek","SRC_URL":"https://lrtjabodebek.kai.id/stations","REMARK":null,"INT_STOP":null,"STOP_ROLE":"LRT_JB_BK:Regular;LRT_JB_CB:Regular","STN_CODE":"CKK"}},{"type":"Feature","id":40,"geometry":{"type":"Point","coordinates":[106.83851459956918,-6.2421415000301295]},"properties":{"OBJECTID":40,"STOP_ID":"LRTJB005","GEOM_ID":"LRTJB005_01","STOP_NAME":"Pancoran","DISPLAY_NM":"Pancoran","MODE":"LRT","OPERATOR":"LRT Jabodebek","STATUS":"Eksisting","STRUCTURE":"ELEVATED","LINES":"LRT_JB_BK;LRT_JB_CB","SEQ_MAP":"LRT_JB_BK:05;LRT_JB_CB:05","INTEGRASI":"BRT","INT_NM":"BRT:Pancoran","SOURCE":"LRT Jabodebek","SRC_URL":"https://lrtjabodebek.kai.id/stations","REMARK":null,"INT_STOP":null,"STOP_ROLE":"LRT_JB_BK:Regular;LRT_JB_CB:Regular","STN_CODE":"PAN"}},{"type":"Feature","id":41,"geometry":{"type":"Point","coordinates":[106.83023429957331,-6.2093224003085083]},"properties":{"OBJECTID":41,"STOP_ID":"LRTJB002","GEOM_ID":"LRTJB002_01","STOP_NAME":"Setiabudi","DISPLAY_NM":"Setiabudi","MODE":"LRT","OPERATOR":"LRT Jabodebek","STATUS":"Eksisting","STRUCTURE":"ELEVATED","LINES":"LRT_JB_BK;LRT_JB_CB","SEQ_MAP":"LRT_JB_BK:02;LRT_JB_CB:02","INTEGRASI":"BRT","INT_NM":"BRT:Setiabudi","SOURCE":"LRT Jabodebek","SRC_URL":"https://lrtjabodebek.kai.id/stations","REMARK":null,"INT_STOP":null,"STOP_ROLE":"LRT_JB_BK:Regular;LRT_JB_CB:Regular","STN_CODE":"SET"}},{"type":"Feature","id":42,"geometry":{"type":"Point","coordinates":[106.83223730021132,-6.221608900330466]},"properties":{"OBJECTID":42,"STOP_ID":"LRTJB003","GEOM_ID":"LRTJB003_01","STOP_NAME":"Rasuna Said","DISPLAY_NM":"Rasuna Said","MODE":"LRT","OPERATOR":"LRT Jabodebek","STATUS":"Eksisting","STRUCTURE":"ELEVATED","LINES":"LRT_JB_BK;LRT_JB_CB","SEQ_MAP":"LRT_JB_BK:03;LRT_JB_CB:03","INTEGRASI":"BRT","INT_NM":"BRT:Rasuna Said","SOURCE":"LRT Jabodebek","SRC_URL":"https://lrtjabodebek.kai.id/stations","REMARK":null,"INT_STOP":null,"STOP_ROLE":"LRT_JB_BK:Regular;LRT_JB_CB:Regular","STN_CODE":"RAS"}},{"type":"Feature","id":43,"geometry":{"type":"Point","coordinates":[107.02167010029495,-6.2641077000102996]},"properties":{"OBJECTID":43,"STOP_ID":"LRTJB014","GEOM_ID":"LRTJB014_01","STOP_NAME":"Jati Mulya","DISPLAY_NM":"Jati Mulya","MODE":"LRT","OPERATOR":"LRT Jabodebek","STATUS":"Eksisting","STRUCTURE":"ELEVATED","LINES":"LRT_JB_BK","SEQ_MAP":"LRT_JB_BK:14","INTEGRASI":null,"INT_NM":null,"SOURCE":"LRT Jabodebek","SRC_URL":"https://lrtjabodebek.kai.id/stations","REMARK":"Terminus Lin Bekasi.","INT_STOP":null,"STOP_ROLE":"LRT_JB_BK:Terminus","STN_CODE":"JTM"}},{"type":"Feature","id":44,"geometry":{"type":"Point","coordinates":[106.99042369989388,-6.2529489003713934]},"properties":{"OBJECTID":44,"STOP_ID":"LRTJB013","GEOM_ID":"LRTJB013_01","STOP_NAME":"Bekasi Barat","DISPLAY_NM":"Bekasi Barat","MODE":"LRT","OPERATOR":"LRT Jabodebek","STATUS":"Eksisting","STRUCTURE":"ELEVATED","LINES":"LRT_JB_BK","SEQ_MAP":"LRT_JB_BK:13","INTEGRASI":null,"INT_NM":null,"SOURCE":"LRT Jabodebek","SRC_URL":"https://lrtjabodebek.kai.id/stations","REMARK":null,"INT_STOP":null,"STOP_ROLE":"LRT_JB_BK:Regular","STN_CODE":"BEK"}},{"type":"Feature","id":45,"geometry":{"type":"Point","coordinates":[106.9632112004366,-6.2546502000466262]},"properties":{"OBJECTID":45,"STOP_ID":"LRTJB012","GEOM_ID":"LRTJB012_01","STOP_NAME":"Cikunir 2","DISPLAY_NM":"Cikunir 2","MODE":"LRT","OPERATOR":"LRT Jabodebek","STATUS":"Eksisting","STRUCTURE":"ELEVATED","LINES":"LRT_JB_BK","SEQ_MAP":"LRT_JB_BK:12","INTEGRASI":null,"INT_NM":null,"SOURCE":"LRT Jabodebek","SRC_URL":"https://lrtjabodebek.kai.id/stations","REMARK":null,"INT_STOP":null,"STOP_ROLE":"LRT_JB_BK:Regular","STN_CODE":"CK2"}},{"type":"Feature","id":46,"geometry":{"type":"Point","coordinates":[106.95187339973768,-6.2566001002144276]},"properties":{"OBJECTID":46,"STOP_ID":"LRTJB011","GEOM_ID":"LRTJB011_01","STOP_NAME":"Cikunir 1","DISPLAY_NM":"Cikunir 1","MODE":"LRT","OPERATOR":"LRT Jabodebek","STATUS":"Eksisting","STRUCTURE":"ELEVATED","LINES":"LRT_JB_BK","SEQ_MAP":"LRT_JB_BK:11","INTEGRASI":null,"INT_NM":null,"SOURCE":"LRT Jabodebek","SRC_URL":"https://lrtjabodebek.kai.id/stations","REMARK":null,"INT_STOP":null,"STOP_ROLE":"LRT_JB_BK:Regular","STN_CODE":"CK1"}},{"type":"Feature","id":47,"geometry":{"type":"Point","coordinates":[106.92791990038313,-6.2577476000716388]},"properties":{"OBJECTID":47,"STOP_ID":"LRTJB010","GEOM_ID":"LRTJB010_01","STOP_NAME":"Jati Bening Baru","DISPLAY_NM":"Jati Bening Baru","MODE":"LRT","OPERATOR":"LRT Jabodebek","STATUS":"Eksisting","STRUCTURE":"ELEVATED","LINES":"LRT_JB_BK","SEQ_MAP":"LRT_JB_BK:10","INTEGRASI":null,"INT_NM":null,"SOURCE":"LRT Jabodebek","SRC_URL":"https://lrtjabodebek.kai.id/stations","REMARK":null,"INT_STOP":null,"STOP_ROLE":"LRT_JB_BK:Regular","STN_CODE":"JBU"}},{"type":"Feature","id":48,"geometry":{"type":"Point","coordinates":[106.83320310014301,-6.2287727000999666]},"properties":{"OBJECTID":48,"STOP_ID":"LRTJB004","GEOM_ID":"LRTJB004_01","STOP_NAME":"Kuningan","DISPLAY_NM":"Kuningan Visa","MODE":"LRT","OPERATOR":"LRT Jabodebek","STATUS":"Eksisting","STRUCTURE":"ELEVATED","LINES":"LRT_JB_BK;LRT_JB_CB","SEQ_MAP":"LRT_JB_BK:04;LRT_JB_CB:04","INTEGRASI":"BRT","INT_NM":"BRT:Kuningan","SOURCE":"LRT Jabodebek","SRC_URL":"https://lrtjabodebek.kai.id/stations","REMARK":null,"INT_STOP":null,"STOP_ROLE":"LRT_JB_BK:Regular;LRT_JB_CB:Regular","STN_CODE":"KUA"}},{"type":"Feature","id":49,"geometry":{"type":"Point","coordinates":[106.82553009973435,-6.2048279997123927]},"properties":{"OBJECTID":49,"STOP_ID":"LRTJB001","GEOM_ID":"LRTJB001_01","STOP_NAME":"Dukuh Atas","DISPLAY_NM":"Dukuh Atas Bank Syariah Indonesia","MODE":"LRT","OPERATOR":"LRT Jabodebek","STATUS":"Eksisting","STRUCTURE":"ELEVATED","LINES":"LRT_JB_BK;LRT_JB_CB","SEQ_MAP":"LRT_JB_BK:01;LRT_JB_CB:01","INTEGRASI":"BRT;KRL_CK;KA_BANDARA;MRT_NS","INT_NM":"BRT:Dukuh Atas;BRT:Galunggung;KRL_CK:Sudirman;KA_BANDARA:BNI City;MRT_NS:Dukuh Atas BNI","SOURCE":"LRT Jabodebek","SRC_URL":"https://lrtjabodebek.kai.id/stations","REMARK":"Terminus bersama Lin Bekasi dan Lin Cibubur.","INT_STOP":"BRT:BRT010;MRT_NS:MRT012","STOP_ROLE":"LRT_JB_BK:Terminus;LRT_JB_CB:Terminus","STN_CODE":"DKA"}},{"type":"Feature","id":50,"geometry":{"type":"Point","coordinates":[106.86397050003859,-6.243446099757648]},"properties":{"OBJECTID":50,"STOP_ID":"LRTJB007","GEOM_ID":"LRTJB007_01","STOP_NAME":"Ciliwung","DISPLAY_NM":"Ciliwung","MODE":"LRT","OPERATOR":"LRT Jabodebek","STATUS":"Eksisting","STRUCTURE":"ELEVATED","LINES":"LRT_JB_BK;LRT_JB_CB","SEQ_MAP":"LRT_JB_BK:07;LRT_JB_CB:07","INTEGRASI":"BRT","INT_NM":"BRT:Ciliwung","SOURCE":"LRT Jabodebek","SRC_URL":"https://lrtjabodebek.kai.id/stations","REMARK":null,"INT_STOP":null,"STOP_ROLE":"LRT_JB_BK:Regular;LRT_JB_CB:Regular","STN_CODE":"CIL"}},{"type":"Feature","id":51,"geometry":{"type":"Point","coordinates":[106.88728749971841,-6.2458655998175345]},"properties":{"OBJECTID":51,"STOP_ID":"LRTJB009","GEOM_ID":"LRTJB009_01","STOP_NAME":"Halim","DISPLAY_NM":"Halim","MODE":"LRT","OPERATOR":"LRT Jabodebek","STATUS":"Eksisting","STRUCTURE":"ELEVATED","LINES":"LRT_JB_BK","SEQ_MAP":"LRT_JB_BK:09","INTEGRASI":null,"INT_NM":null,"SOURCE":"LRT Jabodebek","SRC_URL":"https://lrtjabodebek.kai.id/stations","REMARK":"Terhubung dengan Whoosh, TransJakarta, dan Damri menurut LRT Jabodebek. Koneksi tersebut belum seluruhnya dikodekan ke INTEGRASI karena layer/STOP_ID yang sesuai belum tersedia pada master ini.","INT_STOP":null,"STOP_ROLE":"LRT_JB_BK:Regular","STN_CODE":"HAL"}},{"type":"Feature","id":52,"geometry":{"type":"Point","coordinates":[106.87122960006604,-6.245907000107934]},"properties":{"OBJECTID":52,"STOP_ID":"LRTJB008","GEOM_ID":"LRTJB008_01","STOP_NAME":"Cawang","DISPLAY_NM":"Cawang","MODE":"LRT","OPERATOR":"LRT Jabodebek","STATUS":"Eksisting","STRUCTURE":"ELEVATED","LINES":"LRT_JB_BK;LRT_JB_CB","SEQ_MAP":"LRT_JB_BK:08;LRT_JB_CB:08","INTEGRASI":"BRT","INT_NM":"BRT:Cawang","SOURCE":"LRT Jabodebek","SRC_URL":"https://lrtjabodebek.kai.id/stations","REMARK":"Stasiun percabangan/pertemuan Lin Bekasi dan Lin Cibubur.","INT_STOP":null,"STOP_ROLE":"LRT_JB_BK:Transit;LRT_JB_CB:Transit","STN_CODE":"CWG"}},{"type":"Feature","id":53,"geometry":{"type":"Point","coordinates":[106.88055839985032,-6.2929087997013085]},"properties":{"OBJECTID":53,"STOP_ID":"LRTJB015","GEOM_ID":"LRTJB015_01","STOP_NAME":"Taman Mini","DISPLAY_NM":"Taman Mini","MODE":"LRT","OPERATOR":"LRT Jabodebek","STATUS":"Eksisting","STRUCTURE":"ELEVATED","LINES":"LRT_JB_CB","SEQ_MAP":"LRT_JB_CB:09","INTEGRASI":null,"INT_NM":null,"SOURCE":"LRT Jabodebek","SRC_URL":"https://lrtjabodebek.kai.id/stations/taman-mini","REMARK":"Stasiun Lin Cibubur setelah Cawang. Operator mencantumkan koneksi TransJakarta, bus kota, dan angkot; belum dikodekan sebagai integrasi BRT karena koneksi yang disebut terutama berupa layanan bus/non-BRT.","INT_STOP":null,"STOP_ROLE":"LRT_JB_CB:Regular","STN_CODE":"TMI"}},{"type":"Feature","id":54,"geometry":{"type":"Point","coordinates":[106.88438039983566,-6.3095493997849417]},"properties":{"OBJECTID":54,"STOP_ID":"LRTJB016","GEOM_ID":"LRTJB016_01","STOP_NAME":"Kampung Rambutan","DISPLAY_NM":"Kampung Rambutan","MODE":"LRT","OPERATOR":"LRT Jabodebek","STATUS":"Eksisting","STRUCTURE":"ELEVATED","LINES":"LRT_JB_CB","SEQ_MAP":"LRT_JB_CB:10","INTEGRASI":"BRT;TERMINAL","INT_NM":"BRT:Kampung Rambutan;TERMINAL:Terminal Kampung Rambutan","SOURCE":"LRT Jabodebek","SRC_URL":"https://lrtjabodebek.kai.id/stations/kampung-rambutan","REMARK":"Terintegrasi dengan Halte BRT Kampung Rambutan dan Terminal Kampung Rambutan. INT_STOP dibiarkan kosong sampai STOP_ID BRT/terminal dicocokkan dengan master WebGIS.","INT_STOP":null,"STOP_ROLE":"LRT_JB_CB:Transit","STN_CODE":"KAM"}},{"type":"Feature","id":55,"geometry":{"type":"Point","coordinates":[106.89566979992139,-6.3738925997636215]},"properties":{"OBJECTID":55,"STOP_ID":"LRTJB018","GEOM_ID":"LRTJB018_01","STOP_NAME":"Harjamukti","DISPLAY_NM":"Harjamukti","MODE":"LRT","OPERATOR":"LRT Jabodebek","STATUS":"Eksisting","STRUCTURE":"ELEVATED","LINES":"LRT_JB_CB","SEQ_MAP":"LRT_JB_CB:12","INTEGRASI":null,"INT_NM":null,"SOURCE":"LRT Jabodebek","SRC_URL":"https://lrtjabodebek.kai.id/stations/harjamukti","REMARK":"Terminus Lin Cibubur. Operator mencantumkan koneksi Trans Depok, Trans Pakuan, bus kota, angkot, TransJakarta, Mikrotrans, dan beberapa feeder; belum dikodekan ke INTEGRASI karena moda/layer penghubung tersebut belum seluruhnya direpresentasikan dalam mas","INT_STOP":null,"STOP_ROLE":"LRT_JB_CB:Terminus","STN_CODE":"HAR"}},{"type":"Feature","id":56,"geometry":{"type":"Point","coordinates":[106.88664330004832,-6.3237693001130424]},"properties":{"OBJECTID":56,"STOP_ID":"LRTJB017","GEOM_ID":"LRTJB017_01","STOP_NAME":"Ciracas","DISPLAY_NM":"Ciracas","MODE":"LRT","OPERATOR":"LRT Jabodebek","STATUS":"Eksisting","STRUCTURE":"ELEVATED","LINES":"LRT_JB_CB","SEQ_MAP":"LRT_JB_CB:11","INTEGRASI":null,"INT_NM":null,"SOURCE":"LRT Jabodebek","SRC_URL":"https://lrtjabodebek.kai.id/stations/ciracas","REMARK":"Stasiun Lin Cibubur. Operator mencantumkan koneksi TransJakarta dan angkot; belum dikodekan ke INTEGRASI karena tidak berupa simpul BRT pada master WebGIS saat ini.","INT_STOP":null,"STOP_ROLE":"LRT_JB_CB:Regular","STN_CODE":"CRC"}},{"type":"Feature","id":57,"geometry":{"type":"Point","coordinates":[106.82313219959138,-6.1412999002701554]},"properties":{"OBJECTID":57,"STOP_ID":"KRL006","GEOM_ID":"KRL006_01","STOP_NAME":"Jayakarta","DISPLAY_NM":"Jayakarta","MODE":"KRL","OPERATOR":"KAI Commuter","STATUS":"Eksisting","STRUCTURE":"ELEVATED","LINES":"KRL_BO","SEQ_MAP":"KRL_BO:02","INTEGRASI":null,"INT_NM":null,"SOURCE":"KAI Commuter; OpenStreetMap","SRC_URL":"https://kci.id/files/download/documents/Jadwal%20Commuter%20Line%20Jabodetabek%20-%20Februari%202026.pdf","REMARK":"Stasiun berada pada segmen elevated koridor Jakarta Kota–Manggarai berdasarkan pembagian struktur trase proyek.","INT_STOP":null,"STOP_ROLE":"Regular","STN_CODE":"JAT"}},{"type":"Feature","id":58,"geometry":{"type":"Point","coordinates":[106.8269826001669,-6.1498036997808754]},"properties":{"OBJECTID":58,"STOP_ID":"KRL007","GEOM_ID":"KRL007_01","STOP_NAME":"Mangga Besar","DISPLAY_NM":"Mangga Besar","MODE":"KRL","OPERATOR":"KAI Commuter","STATUS":"Eksisting","STRUCTURE":"ELEVATED","LINES":"KRL_BO","SEQ_MAP":"KRL_BO:03","INTEGRASI":null,"INT_NM":null,"SOURCE":"KAI Commuter; OpenStreetMap","SRC_URL":"https://kci.id/files/download/documents/Jadwal%20Commuter%20Line%20Jabodetabek%20-%20Februari%202026.pdf","REMARK":"Stasiun berada pada segmen elevated koridor Jakarta Kota–Manggarai berdasarkan pembagian struktur trase proyek.","INT_STOP":null,"STOP_ROLE":"Regular","STN_CODE":"MGB"}},{"type":"Feature","id":59,"geometry":{"type":"Point","coordinates":[106.82765490005363,-6.16066719983138]},"properties":{"OBJECTID":59,"STOP_ID":"KRL008","GEOM_ID":"KRL008_01","STOP_NAME":"Sawah Besar","DISPLAY_NM":"Sawah Besar","MODE":"KRL","OPERATOR":"KAI Commuter","STATUS":"Eksisting","STRUCTURE":"ELEVATED","LINES":"KRL_BO","SEQ_MAP":"KRL_BO:04","INTEGRASI":null,"INT_NM":null,"SOURCE":"KAI Commuter; OpenStreetMap","SRC_URL":"https://kci.id/files/download/documents/Jadwal%20Commuter%20Line%20Jabodetabek%20-%20Februari%202026.pdf","REMARK":"Stasiun berada pada segmen elevated koridor Jakarta Kota–Manggarai berdasarkan pembagian struktur trase proyek.","INT_STOP":null,"STOP_ROLE":"Regular","STN_CODE":"ST"}},{"type":"Feature","id":60,"geometry":{"type":"Point","coordinates":[106.83046089995065,-6.1666746000527155]},"properties":{"OBJECTID":60,"STOP_ID":"KRL009","GEOM_ID":"KRL009_01","STOP_NAME":"Juanda","DISPLAY_NM":"Juanda","MODE":"KRL","OPERATOR":"KAI Commuter","STATUS":"Eksisting","STRUCTURE":"ELEVATED","LINES":"KRL_BO","SEQ_MAP":"KRL_BO:05","INTEGRASI":"BRT","INT_NM":"BRT:Juanda","SOURCE":"KAI Commuter; OpenStreetMap","SRC_URL":"https://kci.id/files/download/documents/Jadwal%20Commuter%20Line%20Jabodetabek%20-%20Februari%202026.pdf","REMARK":"Stasiun berada pada segmen elevated koridor Jakarta Kota–Manggarai berdasarkan pembagian struktur trase proyek.","INT_STOP":"BRT:BRT041","STOP_ROLE":"Regular","STN_CODE":"TUA"}},{"type":"Feature","id":61,"geometry":{"type":"Point","coordinates":[106.8325657002469,-6.1859108998680767]},"properties":{"OBJECTID":61,"STOP_ID":"KRL010","GEOM_ID":"KRL010_01","STOP_NAME":"Gondangdia","DISPLAY_NM":"Gondangdia","MODE":"KRL","OPERATOR":"KAI Commuter","STATUS":"Eksisting","STRUCTURE":"ELEVATED","LINES":"KRL_BO","SEQ_MAP":"KRL_BO:06","INTEGRASI":null,"INT_NM":null,"SOURCE":"KAI Commuter; OpenStreetMap","SRC_URL":"https://kci.id/files/download/documents/Jadwal%20Commuter%20Line%20Jabodetabek%20-%20Februari%202026.pdf","REMARK":"Stasiun berada pada segmen elevated koridor Jakarta Kota–Manggarai berdasarkan pembagian struktur trase proyek.","INT_STOP":null,"STOP_ROLE":"Regular","STN_CODE":"GDD"}},{"type":"Feature","id":62,"geometry":{"type":"Point","coordinates":[106.84127989974763,-6.1985052000549103]},"properties":{"OBJECTID":62,"STOP_ID":"KRL011","GEOM_ID":"KRL011_01","STOP_NAME":"Cikini","DISPLAY_NM":"Cikini","MODE":"KRL","OPERATOR":"KAI Commuter","STATUS":"Eksisting","STRUCTURE":"ELEVATED","LINES":"KRL_BO","SEQ_MAP":"KRL_BO:07","INTEGRASI":null,"INT_NM":null,"SOURCE":"KAI Commuter; OpenStreetMap","SRC_URL":"https://kci.id/files/download/documents/Jadwal%20Commuter%20Line%20Jabodetabek%20-%20Februari%202026.pdf","REMARK":"Stasiun berada pada segmen elevated koridor Jakarta Kota–Manggarai berdasarkan pembagian struktur trase proyek.","INT_STOP":null,"STOP_ROLE":"Regular","STN_CODE":"CJI"}},{"type":"Feature","id":63,"geometry":{"type":"Point","coordinates":[106.84993500030009,-6.210170399844003]},"properties":{"OBJECTID":63,"STOP_ID":"KRL012","GEOM_ID":"KRL012_01","STOP_NAME":"Manggarai","DISPLAY_NM":"Manggarai","MODE":"KRL","OPERATOR":"KAI Commuter","STATUS":"Eksisting","STRUCTURE":"ELEVATED","LINES":"KRL_BO;KRL_CK","SEQ_MAP":"KRL_BO:08;KRL_CK:13","INTEGRASI":"BRT;LRT_JKT_S;KA_BANDARA;KAJJ","INT_NM":"BRT:Manggarai;LRT_JKT_S:Manggarai;KA_BANDARA:Manggarai;KAJJ:Manggarai","SOURCE":"KAI Commuter; OpenStreetMap","SRC_URL":"https://kci.id/files/download/documents/Jadwal%20Commuter%20Line%20Jabodetabek%20-%20Februari%202026.pdf","REMARK":"STOP_ID KRL012 dipertahankan dari Lin Bogor. LINES=KRL_BO;KRL_CK; SEQ_MAP menjadi KRL_BO:08;KRL_CK:13. Integrasi eksisting Manggarai dipertahankan.","INT_STOP":"BRT:BRT159;LRT_JKT_S:LRTJ011","STOP_ROLE":"Transit","STN_CODE":"MK"}},{"type":"Feature","id":64,"geometry":{"type":"Point","coordinates":[106.85843889963559,-6.2263977002936031]},"properties":{"OBJECTID":64,"STOP_ID":"KRL013","GEOM_ID":"KRL013_01","STOP_NAME":"Tebet","DISPLAY_NM":"Tebet","MODE":"KRL","OPERATOR":"KAI Commuter","STATUS":"Eksisting","STRUCTURE":"AT_GRADE","LINES":"KRL_BO","SEQ_MAP":"KRL_BO:09","INTEGRASI":null,"INT_NM":null,"SOURCE":"KAI Commuter; OpenStreetMap","SRC_URL":"https://kci.id/files/download/documents/Jadwal%20Commuter%20Line%20Jabodetabek%20-%20Februari%202026.pdf","REMARK":"Stasiun berada pada segmen at-grade Lin Bogor berdasarkan pembagian struktur trase proyek.","INT_STOP":null,"STOP_ROLE":"Regular","STN_CODE":"TBB"}},{"type":"Feature","id":65,"geometry":{"type":"Point","coordinates":[106.85869029971764,-6.2425516997011528]},"properties":{"OBJECTID":65,"STOP_ID":"KRL014","GEOM_ID":"KRL014_01","STOP_NAME":"Cawang","DISPLAY_NM":"Cawang","MODE":"KRL","OPERATOR":"KAI Commuter","STATUS":"Eksisting","STRUCTURE":"AT_GRADE","LINES":"KRL_BO","SEQ_MAP":"KRL_BO:10","INTEGRASI":null,"INT_NM":null,"SOURCE":"KAI Commuter; OpenStreetMap","SRC_URL":"https://kci.id/files/download/documents/Jadwal%20Commuter%20Line%20Jabodetabek%20-%20Februari%202026.pdf","REMARK":"Stasiun berada pada segmen at-grade Lin Bogor berdasarkan pembagian struktur trase proyek.","INT_STOP":null,"STOP_ROLE":"Regular","STN_CODE":"CP"}},{"type":"Feature","id":66,"geometry":{"type":"Point","coordinates":[106.85516720020621,-6.2552012002751098]},"properties":{"OBJECTID":66,"STOP_ID":"KRL015","GEOM_ID":"KRL015_01","STOP_NAME":"Duren Kalibata","DISPLAY_NM":"Duren Kalibata","MODE":"KRL","OPERATOR":"KAI Commuter","STATUS":"Eksisting","STRUCTURE":"AT_GRADE","LINES":"KRL_BO","SEQ_MAP":"KRL_BO:11","INTEGRASI":null,"INT_NM":null,"SOURCE":"KAI Commuter; OpenStreetMap","SRC_URL":"https://kci.id/files/download/documents/Jadwal%20Commuter%20Line%20Jabodetabek%20-%20Februari%202026.pdf","REMARK":"Stasiun berada pada segmen at-grade Lin Bogor berdasarkan pembagian struktur trase proyek.","INT_STOP":null,"STOP_ROLE":"Regular","STN_CODE":"DRN"}},{"type":"Feature","id":67,"geometry":{"type":"Point","coordinates":[106.85179570031136,-6.2627980002274626]},"properties":{"OBJECTID":67,"STOP_ID":"KRL016","GEOM_ID":"KRL016_01","STOP_NAME":"Pasar Minggu Baru","DISPLAY_NM":"Pasar Minggu Baru","MODE":"KRL","OPERATOR":"KAI Commuter","STATUS":"Eksisting","STRUCTURE":"AT_GRADE","LINES":"KRL_BO","SEQ_MAP":"KRL_BO:12","INTEGRASI":null,"INT_NM":null,"SOURCE":"KAI Commuter; OpenStreetMap","SRC_URL":"https://kci.id/files/download/documents/Jadwal%20Commuter%20Line%20Jabodetabek%20-%20Februari%202026.pdf","REMARK":"Stasiun berada pada segmen at-grade Lin Bogor berdasarkan pembagian struktur trase proyek.","INT_STOP":null,"STOP_ROLE":"Regular","STN_CODE":"PSBD"}},{"type":"Feature","id":68,"geometry":{"type":"Point","coordinates":[106.84485580025506,-6.2833321998211318]},"properties":{"OBJECTID":68,"STOP_ID":"KRL017","GEOM_ID":"KRL017_01","STOP_NAME":"Pasar Minggu","DISPLAY_NM":"Pasar Minggu","MODE":"KRL","OPERATOR":"KAI Commuter","STATUS":"Eksisting","STRUCTURE":"AT_GRADE","LINES":"KRL_BO","SEQ_MAP":"KRL_BO:13","INTEGRASI":null,"INT_NM":null,"SOURCE":"KAI Commuter; OpenStreetMap","SRC_URL":"https://kci.id/files/download/documents/Jadwal%20Commuter%20Line%20Jabodetabek%20-%20Februari%202026.pdf","REMARK":"Stasiun berada pada segmen at-grade Lin Bogor berdasarkan pembagian struktur trase proyek.","INT_STOP":null,"STOP_ROLE":"Regular","STN_CODE":"PSM"}},{"type":"Feature","id":69,"geometry":{"type":"Point","coordinates":[106.83894919964592,-6.3080406998183776]},"properties":{"OBJECTID":69,"STOP_ID":"KRL018","GEOM_ID":"KRL018_01","STOP_NAME":"Tanjung Barat","DISPLAY_NM":"Tanjung Barat","MODE":"KRL","OPERATOR":"KAI Commuter","STATUS":"Eksisting","STRUCTURE":"AT_GRADE","LINES":"KRL_BO","SEQ_MAP":"KRL_BO:14","INTEGRASI":null,"INT_NM":null,"SOURCE":"KAI Commuter; OpenStreetMap","SRC_URL":"https://kci.id/files/download/documents/Jadwal%20Commuter%20Line%20Jabodetabek%20-%20Februari%202026.pdf","REMARK":"Stasiun berada pada segmen at-grade Lin Bogor berdasarkan pembagian struktur trase proyek.","INT_STOP":null,"STOP_ROLE":"Regular","STN_CODE":"TNT"}},{"type":"Feature","id":70,"geometry":{"type":"Point","coordinates":[106.83467909986064,-6.3303079001893821]},"properties":{"OBJECTID":70,"STOP_ID":"KRL019","GEOM_ID":"KRL019_01","STOP_NAME":"Lenteng Agung","DISPLAY_NM":"Lenteng Agung","MODE":"KRL","OPERATOR":"KAI Commuter","STATUS":"Eksisting","STRUCTURE":"AT_GRADE","LINES":"KRL_BO","SEQ_MAP":"KRL_BO:15","INTEGRASI":null,"INT_NM":null,"SOURCE":"KAI Commuter; OpenStreetMap","SRC_URL":"https://kci.id/files/download/documents/Jadwal%20Commuter%20Line%20Jabodetabek%20-%20Februari%202026.pdf","REMARK":"Stasiun berada pada segmen at-grade Lin Bogor berdasarkan pembagian struktur trase proyek.","INT_STOP":null,"STOP_ROLE":"Regular","STN_CODE":"LMA"}},{"type":"Feature","id":71,"geometry":{"type":"Point","coordinates":[106.83426299973769,-6.3393452000209436]},"properties":{"OBJECTID":71,"STOP_ID":"KRL020","GEOM_ID":"KRL020_01","STOP_NAME":"Universitas Pancasila","DISPLAY_NM":"Universitas Pancasila","MODE":"KRL","OPERATOR":"KAI Commuter","STATUS":"Eksisting","STRUCTURE":"AT_GRADE","LINES":"KRL_BO","SEQ_MAP":"KRL_BO:16","INTEGRASI":null,"INT_NM":null,"SOURCE":"KAI Commuter; OpenStreetMap","SRC_URL":"https://kci.id/files/download/documents/Jadwal%20Commuter%20Line%20Jabodetabek%20-%20Februari%202026.pdf","REMARK":"Stasiun berada pada segmen at-grade Lin Bogor berdasarkan pembagian struktur trase proyek.","INT_STOP":null,"STOP_ROLE":"Regular","STN_CODE":"UP"}},{"type":"Feature","id":72,"geometry":{"type":"Point","coordinates":[106.83178200043903,-6.3604314997139113]},"properties":{"OBJECTID":72,"STOP_ID":"KRL021","GEOM_ID":"KRL021_01","STOP_NAME":"Universitas Indonesia","DISPLAY_NM":"Universitas Indonesia","MODE":"KRL","OPERATOR":"KAI Commuter","STATUS":"Eksisting","STRUCTURE":"AT_GRADE","LINES":"KRL_BO","SEQ_MAP":"KRL_BO:17","INTEGRASI":null,"INT_NM":null,"SOURCE":"KAI Commuter; OpenStreetMap","SRC_URL":"https://kci.id/files/download/documents/Jadwal%20Commuter%20Line%20Jabodetabek%20-%20Februari%202026.pdf","REMARK":"Stasiun berada pada segmen at-grade Lin Bogor berdasarkan pembagian struktur trase proyek.","INT_STOP":null,"STOP_ROLE":"Regular","STN_CODE":"UI"}},{"type":"Feature","id":73,"geometry":{"type":"Point","coordinates":[106.83208440017501,-6.3690593004463381]},"properties":{"OBJECTID":73,"STOP_ID":"KRL022","GEOM_ID":"KRL022_01","STOP_NAME":"Pondok Cina","DISPLAY_NM":"Pondok Cina","MODE":"KRL","OPERATOR":"KAI Commuter","STATUS":"Eksisting","STRUCTURE":"AT_GRADE","LINES":"KRL_BO","SEQ_MAP":"KRL_BO:18","INTEGRASI":null,"INT_NM":null,"SOURCE":"KAI Commuter; OpenStreetMap","SRC_URL":"https://kci.id/files/download/documents/Jadwal%20Commuter%20Line%20Jabodetabek%20-%20Februari%202026.pdf","REMARK":"Stasiun berada pada segmen at-grade Lin Bogor berdasarkan pembagian struktur trase proyek.","INT_STOP":null,"STOP_ROLE":"Regular","STN_CODE":"POC"}},{"type":"Feature","id":74,"geometry":{"type":"Point","coordinates":[106.82164120008139,-6.3911293001769991]},"properties":{"OBJECTID":74,"STOP_ID":"KRL023","GEOM_ID":"KRL023_01","STOP_NAME":"Depok Baru","DISPLAY_NM":"Depok Baru","MODE":"KRL","OPERATOR":"KAI Commuter","STATUS":"Eksisting","STRUCTURE":"AT_GRADE","LINES":"KRL_BO","SEQ_MAP":"KRL_BO:19","INTEGRASI":null,"INT_NM":null,"SOURCE":"KAI Commuter; OpenStreetMap","SRC_URL":"https://kci.id/files/download/documents/Jadwal%20Commuter%20Line%20Jabodetabek%20-%20Februari%202026.pdf","REMARK":"Stasiun berada pada segmen at-grade Lin Bogor berdasarkan pembagian struktur trase proyek.","INT_STOP":null,"STOP_ROLE":"Regular","STN_CODE":"JPP"}},{"type":"Feature","id":75,"geometry":{"type":"Point","coordinates":[106.81708420037563,-6.4048262995939922]},"properties":{"OBJECTID":75,"STOP_ID":"KRL024","GEOM_ID":"KRL024_01","STOP_NAME":"Depok","DISPLAY_NM":"Depok","MODE":"KRL","OPERATOR":"KAI Commuter","STATUS":"Eksisting","STRUCTURE":"AT_GRADE","LINES":"KRL_BO","SEQ_MAP":"KRL_BO:20","INTEGRASI":null,"INT_NM":null,"SOURCE":"KAI Commuter; OpenStreetMap","SRC_URL":"https://kci.id/files/download/documents/Jadwal%20Commuter%20Line%20Jabodetabek%20-%20Februari%202026.pdf","REMARK":"Stasiun berada pada segmen at-grade Lin Bogor berdasarkan pembagian struktur trase proyek.","INT_STOP":null,"STOP_ROLE":"Regular","STN_CODE":"DP"}},{"type":"Feature","id":76,"geometry":{"type":"Point","coordinates":[106.80236190008168,-6.44882369985379]},"properties":{"OBJECTID":76,"STOP_ID":"KRL025","GEOM_ID":"KRL025_01","STOP_NAME":"Citayam","DISPLAY_NM":"Citayam","MODE":"KRL","OPERATOR":"KAI Commuter","STATUS":"Eksisting","STRUCTURE":"AT_GRADE","LINES":"KRL_BO","SEQ_MAP":"KRL_BO:21","INTEGRASI":null,"INT_NM":null,"SOURCE":"KAI Commuter; OpenStreetMap","SRC_URL":"https://kci.id/files/download/documents/Jadwal%20Commuter%20Line%20Jabodetabek%20-%20Februari%202026.pdf","REMARK":"Stasiun percabangan Lin Bogor menuju Bogor dan Nambo. Cabang Nambo tetap berada dalam LINE_ID KRL_BO.","INT_STOP":null,"STOP_ROLE":"Transit","STN_CODE":"CFA"}},{"type":"Feature","id":77,"geometry":{"type":"Point","coordinates":[106.79502499970403,-6.493234499572452]},"properties":{"OBJECTID":77,"STOP_ID":"KRL026","GEOM_ID":"KRL026_01","STOP_NAME":"Bojong Gede","DISPLAY_NM":"Bojong Gede","MODE":"KRL","OPERATOR":"KAI Commuter","STATUS":"Eksisting","STRUCTURE":"AT_GRADE","LINES":"KRL_BO","SEQ_MAP":"KRL_BO:22","INTEGRASI":null,"INT_NM":null,"SOURCE":"KAI Commuter; OpenStreetMap","SRC_URL":"https://kci.id/files/download/documents/Jadwal%20Commuter%20Line%20Jabodetabek%20-%20Februari%202026.pdf","REMARK":"Stasiun berada pada segmen at-grade Lin Bogor berdasarkan pembagian struktur trase proyek.","INT_STOP":null,"STOP_ROLE":"Regular","STN_CODE":"BJD"}},{"type":"Feature","id":78,"geometry":{"type":"Point","coordinates":[106.80068840024956,-6.5307239000878781]},"properties":{"OBJECTID":78,"STOP_ID":"KRL027","GEOM_ID":"KRL027_01","STOP_NAME":"Cilebut","DISPLAY_NM":"Cilebut","MODE":"KRL","OPERATOR":"KAI Commuter","STATUS":"Eksisting","STRUCTURE":"AT_GRADE","LINES":"KRL_BO","SEQ_MAP":"KRL_BO:23","INTEGRASI":null,"INT_NM":null,"SOURCE":"KAI Commuter; OpenStreetMap","SRC_URL":"https://kci.id/files/download/documents/Jadwal%20Commuter%20Line%20Jabodetabek%20-%20Februari%202026.pdf","REMARK":"Stasiun berada pada segmen at-grade Lin Bogor berdasarkan pembagian struktur trase proyek.","INT_STOP":null,"STOP_ROLE":"Regular","STN_CODE":"CLT"}},{"type":"Feature","id":79,"geometry":{"type":"Point","coordinates":[106.79076950041218,-6.5942886999634993]},"properties":{"OBJECTID":79,"STOP_ID":"KRL028","GEOM_ID":"KRL028_01","STOP_NAME":"Bogor","DISPLAY_NM":"Bogor","MODE":"KRL","OPERATOR":"KAI Commuter","STATUS":"Eksisting","STRUCTURE":"AT_GRADE","LINES":"KRL_BO","SEQ_MAP":"KRL_BO:24","INTEGRASI":null,"INT_NM":null,"SOURCE":"KAI Commuter; OpenStreetMap","SRC_URL":"https://kci.id/files/download/documents/Jadwal%20Commuter%20Line%20Jabodetabek%20-%20Februari%202026.pdf","REMARK":"Terminus selatan cabang utama Commuter Line Bogor.","INT_STOP":null,"STOP_ROLE":"Terminus","STN_CODE":"BOO"}},{"type":"Feature","id":81,"geometry":{"type":"Point","coordinates":[106.80129679970759,-6.1552763999858371]},"properties":{"OBJECTID":81,"STOP_ID":"KRL029","GEOM_ID":"KRL029_01","STOP_NAME":"Duri","DISPLAY_NM":"Duri","MODE":"KRL","OPERATOR":"KAI Commuter","STATUS":"Eksisting","STRUCTURE":"AT_GRADE","LINES":"KRL_TA;KRL_CK","SEQ_MAP":"KRL_TA:01;KRL_CK:09","INTEGRASI":"KA_BANDARA","INT_NM":"KA_BANDARA:Duri","SOURCE":"KAI Commuter; OpenStreetMap","SRC_URL":"https://kci.id/files/download/documents/Jadwal%20Commuter%20Line%20Jabodetabek%20Update%20Februari%202026.pdf; https://www.openstreetmap.org/node/4963295116","REMARK":"STOP_ID KRL029 dipertahankan dari Lin Tangerang. LINES=KRL_TA;KRL_CK; SEQ_MAP menjadi KRL_TA:01;KRL_CK:09. Duri tetap terminus Lin Tangerang dan merupakan stasiun Lin Cikarang.","INT_STOP":null,"STOP_ROLE":"Transit-Terminus","STN_CODE":"DU"}},{"type":"Feature","id":82,"geometry":{"type":"Point","coordinates":[106.78961009982629,-6.1620350003149724]},"properties":{"OBJECTID":82,"STOP_ID":"KRL030","GEOM_ID":"KRL030_01","STOP_NAME":"Grogol","DISPLAY_NM":"Grogol","MODE":"KRL","OPERATOR":"KAI Commuter","STATUS":"Eksisting","STRUCTURE":"AT_GRADE","LINES":"KRL_TA","SEQ_MAP":"KRL_TA:02","INTEGRASI":null,"INT_NM":null,"SOURCE":"KAI Commuter; OpenStreetMap","SRC_URL":"https://kci.id/files/download/documents/Jadwal%20Commuter%20Line%20Jabodetabek%20Update%20Februari%202026.pdf; https://www.openstreetmap.org/node/5047494890","REMARK":"Stasiun Commuter Line Tangerang pada segmen at-grade.","INT_STOP":null,"STOP_ROLE":"Regular","STN_CODE":"GRG"}},{"type":"Feature","id":83,"geometry":{"type":"Point","coordinates":[106.7719076998805,-6.1612525002026928]},"properties":{"OBJECTID":83,"STOP_ID":"KRL031","GEOM_ID":"KRL031_01","STOP_NAME":"Pesing","DISPLAY_NM":"Pesing","MODE":"KRL","OPERATOR":"KAI Commuter","STATUS":"Eksisting","STRUCTURE":"AT_GRADE","LINES":"KRL_TA","SEQ_MAP":"KRL_TA:03","INTEGRASI":null,"INT_NM":null,"SOURCE":"KAI Commuter; OpenStreetMap","SRC_URL":"https://kci.id/files/download/documents/Jadwal%20Commuter%20Line%20Jabodetabek%20Update%20Februari%202026.pdf; https://www.openstreetmap.org/node/4149368915","REMARK":"Stasiun Commuter Line Tangerang pada segmen at-grade.","INT_STOP":null,"STOP_ROLE":"Regular","STN_CODE":"PSG"}},{"type":"Feature","id":84,"geometry":{"type":"Point","coordinates":[106.75657280029458,-6.158626999636283]},"properties":{"OBJECTID":84,"STOP_ID":"KRL032","GEOM_ID":"KRL032_01","STOP_NAME":"Taman Kota","DISPLAY_NM":"Taman Kota","MODE":"KRL","OPERATOR":"KAI Commuter","STATUS":"Eksisting","STRUCTURE":"AT_GRADE","LINES":"KRL_TA","SEQ_MAP":"KRL_TA:04","INTEGRASI":"BRT","INT_NM":"BRT:Taman Kota","SOURCE":"KAI Commuter; OpenStreetMap","SRC_URL":"https://kci.id/files/download/documents/Jadwal%20Commuter%20Line%20Jabodetabek%20Update%20Februari%202026.pdf; https://www.openstreetmap.org/node/5070875099","REMARK":"Terhubung dengan Halte BRT Taman Kota. Reciprocal pada master BRT sudah menggunakan INTEGRASI=KRL_TA dan INT_NM=KRL_TA:Taman Kota.","INT_STOP":"BRT:BRT053","STOP_ROLE":"Transit","STN_CODE":"TKO"}},{"type":"Feature","id":85,"geometry":{"type":"Point","coordinates":[106.73613380023477,-6.1602141996255568]},"properties":{"OBJECTID":85,"STOP_ID":"KRL033","GEOM_ID":"KRL033_01","STOP_NAME":"Bojong Indah","DISPLAY_NM":"Bojong Indah","MODE":"KRL","OPERATOR":"KAI Commuter","STATUS":"Eksisting","STRUCTURE":"AT_GRADE","LINES":"KRL_TA","SEQ_MAP":"KRL_TA:05","INTEGRASI":null,"INT_NM":null,"SOURCE":"KAI Commuter; OpenStreetMap","SRC_URL":"https://kci.id/files/download/documents/Jadwal%20Commuter%20Line%20Jabodetabek%20Update%20Februari%202026.pdf; https://www.openstreetmap.org/node/11201927617","REMARK":"Stasiun Commuter Line Tangerang pada segmen at-grade.","INT_STOP":null,"STOP_ROLE":"Regular","STN_CODE":"BOI"}},{"type":"Feature","id":86,"geometry":{"type":"Point","coordinates":[106.72275430017089,-6.1627437002615011]},"properties":{"OBJECTID":86,"STOP_ID":"KRL034","GEOM_ID":"KRL034_01","STOP_NAME":"Rawa Buaya","DISPLAY_NM":"Rawa Buaya","MODE":"KRL","OPERATOR":"KAI Commuter","STATUS":"Eksisting","STRUCTURE":"AT_GRADE","LINES":"KRL_TA","SEQ_MAP":"KRL_TA:06","INTEGRASI":"KA_BANDARA","INT_NM":"KA_BANDARA:Rawa Buaya","SOURCE":"KAI Commuter; OpenStreetMap","SRC_URL":"https://kci.id/files/download/documents/Jadwal%20Commuter%20Line%20Jabodetabek%20Update%20Februari%202026.pdf; https://www.openstreetmap.org/node/5033751697","REMARK":"Selain Commuter Line Tangerang, Stasiun Rawa Buaya juga dilayani Commuter Line Basoetta. INT_STOP dibiarkan kosong sampai master stop KA Bandara memiliki STOP_ID.","INT_STOP":null,"STOP_ROLE":"Transit","STN_CODE":"RW"}},{"type":"Feature","id":87,"geometry":{"type":"Point","coordinates":[106.70372829962139,-6.1659661995803958]},"properties":{"OBJECTID":87,"STOP_ID":"KRL035","GEOM_ID":"KRL035_01","STOP_NAME":"Kalideres","DISPLAY_NM":"Kalideres","MODE":"KRL","OPERATOR":"KAI Commuter","STATUS":"Eksisting","STRUCTURE":"AT_GRADE","LINES":"KRL_TA","SEQ_MAP":"KRL_TA:07","INTEGRASI":null,"INT_NM":null,"SOURCE":"KAI Commuter; OpenStreetMap","SRC_URL":"https://kci.id/files/download/documents/Jadwal%20Commuter%20Line%20Jabodetabek%20Update%20Februari%202026.pdf; https://www.openstreetmap.org/node/4905517383","REMARK":"Stasiun Commuter Line Tangerang pada segmen at-grade.","INT_STOP":null,"STOP_ROLE":"Regular","STN_CODE":"KDS"}},{"type":"Feature","id":88,"geometry":{"type":"Point","coordinates":[106.6807523003784,-6.1697345999717754]},"properties":{"OBJECTID":88,"STOP_ID":"KRL036","GEOM_ID":"KRL036_01","STOP_NAME":"Poris","DISPLAY_NM":"Poris","MODE":"KRL","OPERATOR":"KAI Commuter","STATUS":"Eksisting","STRUCTURE":"AT_GRADE","LINES":"KRL_TA","SEQ_MAP":"KRL_TA:08","INTEGRASI":null,"INT_NM":null,"SOURCE":"KAI Commuter; OpenStreetMap","SRC_URL":"https://kci.id/files/download/documents/Jadwal%20Commuter%20Line%20Jabodetabek%20Update%20Februari%202026.pdf; https://www.openstreetmap.org/node/4149415299","REMARK":"Stasiun Commuter Line Tangerang pada segmen at-grade.","INT_STOP":null,"STOP_ROLE":"Regular","STN_CODE":"PI"}},{"type":"Feature","id":89,"geometry":{"type":"Point","coordinates":[106.66528659979679,-6.1720268000967167]},"properties":{"OBJECTID":89,"STOP_ID":"KRL037","GEOM_ID":"KRL037_01","STOP_NAME":"Batu Ceper","DISPLAY_NM":"Batu Ceper","MODE":"KRL","OPERATOR":"KAI Commuter","STATUS":"Eksisting","STRUCTURE":"AT_GRADE","LINES":"KRL_TA","SEQ_MAP":"KRL_TA:09","INTEGRASI":"KA_BANDARA","INT_NM":"KA_BANDARA:Batu Ceper","SOURCE":"KAI Commuter; OpenStreetMap","SRC_URL":"https://kci.id/files/download/documents/Jadwal%20Commuter%20Line%20Jabodetabek%20Update%20Februari%202026.pdf; https://www.openstreetmap.org/node/9201422096","REMARK":"Stasiun integrasi Commuter Line Tangerang dengan Commuter Line Basoetta. INT_STOP dibiarkan kosong sampai master stop KA Bandara memiliki STOP_ID.","INT_STOP":null,"STOP_ROLE":"Transit","STN_CODE":"BPR"}},{"type":"Feature","id":90,"geometry":{"type":"Point","coordinates":[106.64670950034321,-6.1751700997202761]},"properties":{"OBJECTID":90,"STOP_ID":"KRL038","GEOM_ID":"KRL038_01","STOP_NAME":"Tanah Tinggi","DISPLAY_NM":"Tanah Tinggi","MODE":"KRL","OPERATOR":"KAI Commuter","STATUS":"Eksisting","STRUCTURE":"AT_GRADE","LINES":"KRL_TA","SEQ_MAP":"KRL_TA:10","INTEGRASI":null,"INT_NM":null,"SOURCE":"KAI Commuter; OpenStreetMap","SRC_URL":"https://kci.id/files/download/documents/Jadwal%20Commuter%20Line%20Jabodetabek%20Update%20Februari%202026.pdf; https://www.openstreetmap.org/node/316739060","REMARK":"Stasiun Commuter Line Tangerang pada segmen at-grade.","INT_STOP":null,"STOP_ROLE":"Regular","STN_CODE":"THI"}},{"type":"Feature","id":91,"geometry":{"type":"Point","coordinates":[106.63201060040893,-6.1769752998701506]},"properties":{"OBJECTID":91,"STOP_ID":"KRL039","GEOM_ID":"KRL039_01","STOP_NAME":"Tangerang","DISPLAY_NM":"Tangerang","MODE":"KRL","OPERATOR":"KAI Commuter","STATUS":"Eksisting","STRUCTURE":"AT_GRADE","LINES":"KRL_TA","SEQ_MAP":"KRL_TA:11","INTEGRASI":null,"INT_NM":null,"SOURCE":"KAI Commuter; OpenStreetMap","SRC_URL":"https://kci.id/files/download/documents/Jadwal%20Commuter%20Line%20Jabodetabek%20Update%20Februari%202026.pdf; https://www.openstreetmap.org/node/316739175","REMARK":"Terminus barat Commuter Line Tangerang.","INT_STOP":null,"STOP_ROLE":"Terminus","STN_CODE":"TNG"}},{"type":"Feature","id":92,"geometry":{"type":"Point","coordinates":[107.14507329979301,-6.2553137998918942]},"properties":{"OBJECTID":92,"STOP_ID":"KRL040","GEOM_ID":"KRL040_01","STOP_NAME":"Cikarang","DISPLAY_NM":"Cikarang","MODE":"KRL","OPERATOR":"KAI Commuter","STATUS":"Eksisting","STRUCTURE":"AT_GRADE","LINES":"KRL_CK","SEQ_MAP":"KRL_CK:26","INTEGRASI":null,"INT_NM":null,"SOURCE":"KAI Commuter; OpenStreetMap","SRC_URL":"https://www.openstreetmap.org/node/11185037567","REMARK":"Terminus timur Lin Cikarang. Dalam urutan aktif master, Cikarang menjadi KRL_CK:26.","INT_STOP":null,"STOP_ROLE":"Terminus","STN_CODE":"CKR"}},{"type":"Feature","id":93,"geometry":{"type":"Point","coordinates":[107.11122699982621,-6.2574741000496488]},"properties":{"OBJECTID":93,"STOP_ID":"KRL041","GEOM_ID":"KRL041_01","STOP_NAME":"Metland Telagamurni","DISPLAY_NM":"Metland Telagamurni","MODE":"KRL","OPERATOR":"KAI Commuter","STATUS":"Eksisting","STRUCTURE":"AT_GRADE","LINES":"KRL_CK","SEQ_MAP":"KRL_CK:25","INTEGRASI":null,"INT_NM":null,"SOURCE":"KAI Commuter; OpenStreetMap","SRC_URL":"https://www.openstreetmap.org/node/5312478122","REMARK":"Stasiun Lin Cikarang; struktur dinormalisasi menjadi AT_GRADE. STOP_ID legacy KRLCK diganti ke seri KRL umum agar konsisten dengan master.","INT_STOP":null,"STOP_ROLE":"Regular","STN_CODE":"TLM"}},{"type":"Feature","id":94,"geometry":{"type":"Point","coordinates":[107.08379819992706,-6.2618245003004063]},"properties":{"OBJECTID":94,"STOP_ID":"KRL042","GEOM_ID":"KRL042_01","STOP_NAME":"Cibitung","DISPLAY_NM":"Cibitung","MODE":"KRL","OPERATOR":"KAI Commuter","STATUS":"Eksisting","STRUCTURE":"AT_GRADE","LINES":"KRL_CK","SEQ_MAP":"KRL_CK:24","INTEGRASI":null,"INT_NM":null,"SOURCE":"KAI Commuter; OpenStreetMap","SRC_URL":"https://www.openstreetmap.org/node/316744738","REMARK":"Stasiun Lin Cikarang; struktur dinormalisasi menjadi AT_GRADE. STOP_ID legacy KRLCK diganti ke seri KRL umum agar konsisten dengan master.","INT_STOP":null,"STOP_ROLE":"Regular","STN_CODE":"CIT"}},{"type":"Feature","id":95,"geometry":{"type":"Point","coordinates":[107.05580440005309,-6.2585496001838692]},"properties":{"OBJECTID":95,"STOP_ID":"KRL043","GEOM_ID":"KRL043_01","STOP_NAME":"Tambun","DISPLAY_NM":"Tambun","MODE":"KRL","OPERATOR":"KAI Commuter","STATUS":"Eksisting","STRUCTURE":"AT_GRADE","LINES":"KRL_CK","SEQ_MAP":"KRL_CK:23","INTEGRASI":null,"INT_NM":null,"SOURCE":"KAI Commuter; OpenStreetMap","SRC_URL":"https://www.openstreetmap.org/node/9201422030","REMARK":"Stasiun Lin Cikarang; struktur dinormalisasi menjadi AT_GRADE. STOP_ID legacy KRLCK diganti ke seri KRL umum agar konsisten dengan master.","INT_STOP":null,"STOP_ROLE":"Regular","STN_CODE":"TB"}},{"type":"Feature","id":96,"geometry":{"type":"Point","coordinates":[107.01810460044703,-6.2467953000630132]},"properties":{"OBJECTID":96,"STOP_ID":"KRL044","GEOM_ID":"KRL044_01","STOP_NAME":"Bekasi Timur","DISPLAY_NM":"Bekasi Timur","MODE":"KRL","OPERATOR":"KAI Commuter","STATUS":"Eksisting","STRUCTURE":"AT_GRADE","LINES":"KRL_CK","SEQ_MAP":"KRL_CK:22","INTEGRASI":null,"INT_NM":null,"SOURCE":"KAI Commuter; OpenStreetMap","SRC_URL":"https://www.openstreetmap.org/node/5155429394","REMARK":"Stasiun Lin Cikarang; struktur dinormalisasi menjadi AT_GRADE. STOP_ID legacy KRLCK diganti ke seri KRL umum agar konsisten dengan master.","INT_STOP":null,"STOP_ROLE":"Regular","STN_CODE":"BKST"}},{"type":"Feature","id":97,"geometry":{"type":"Point","coordinates":[106.9987435997374,-6.2362143004495465]},"properties":{"OBJECTID":97,"STOP_ID":"KRL045","GEOM_ID":"KRL045_01","STOP_NAME":"Bekasi","DISPLAY_NM":"Bekasi","MODE":"KRL","OPERATOR":"KAI Commuter","STATUS":"Eksisting","STRUCTURE":"AT_GRADE","LINES":"KRL_CK","SEQ_MAP":"KRL_CK:21","INTEGRASI":null,"INT_NM":null,"SOURCE":"KAI Commuter; OpenStreetMap","SRC_URL":"https://www.openstreetmap.org/node/3469731328","REMARK":"Stasiun Lin Cikarang; struktur dinormalisasi menjadi AT_GRADE. STOP_ID legacy KRLCK diganti ke seri KRL umum agar konsisten dengan master.","INT_STOP":null,"STOP_ROLE":"Regular","STN_CODE":"BKS"}},{"type":"Feature","id":98,"geometry":{"type":"Point","coordinates":[106.97982670044195,-6.2245133004483932]},"properties":{"OBJECTID":98,"STOP_ID":"KRL046","GEOM_ID":"KRL046_01","STOP_NAME":"Kranji","DISPLAY_NM":"Kranji","MODE":"KRL","OPERATOR":"KAI Commuter","STATUS":"Eksisting","STRUCTURE":"AT_GRADE","LINES":"KRL_CK","SEQ_MAP":"KRL_CK:20","INTEGRASI":null,"INT_NM":null,"SOURCE":"KAI Commuter; OpenStreetMap","SRC_URL":"https://www.openstreetmap.org/node/316743611","REMARK":"Stasiun Lin Cikarang; struktur dinormalisasi menjadi AT_GRADE. STOP_ID legacy KRLCK diganti ke seri KRL umum agar konsisten dengan master.","INT_STOP":null,"STOP_ROLE":"Regular","STN_CODE":"KRI"}},{"type":"Feature","id":99,"geometry":{"type":"Point","coordinates":[106.95247910033027,-6.2190809995884138]},"properties":{"OBJECTID":99,"STOP_ID":"KRL047","GEOM_ID":"KRL047_01","STOP_NAME":"Cakung","DISPLAY_NM":"Cakung","MODE":"KRL","OPERATOR":"KAI Commuter","STATUS":"Eksisting","STRUCTURE":"AT_GRADE","LINES":"KRL_CK","SEQ_MAP":"KRL_CK:19","INTEGRASI":"BRT","INT_NM":"BRT:Stasiun Cakung","SOURCE":"KAI Commuter; OpenStreetMap","SRC_URL":"https://www.openstreetmap.org/node/3865048788","REMARK":"Stasiun Lin Cikarang; struktur dinormalisasi menjadi AT_GRADE. STOP_ID legacy KRLCK diganti ke seri KRL umum agar konsisten dengan master.","INT_STOP":"BRT:BRT215","STOP_ROLE":"Regular","STN_CODE":"CUK"}},{"type":"Feature","id":100,"geometry":{"type":"Point","coordinates":[106.94018330041905,-6.2176591003871522]},"properties":{"OBJECTID":100,"STOP_ID":"KRL048","GEOM_ID":"KRL048_01","STOP_NAME":"Klender Baru","DISPLAY_NM":"Klender Baru","MODE":"KRL","OPERATOR":"KAI Commuter","STATUS":"Eksisting","STRUCTURE":"AT_GRADE","LINES":"KRL_CK","SEQ_MAP":"KRL_CK:18","INTEGRASI":null,"INT_NM":null,"SOURCE":"KAI Commuter; OpenStreetMap","SRC_URL":"https://www.openstreetmap.org/node/4901690569","REMARK":"Stasiun Lin Cikarang; struktur dinormalisasi menjadi AT_GRADE. STOP_ID legacy KRLCK diganti ke seri KRL umum agar konsisten dengan master.","INT_STOP":null,"STOP_ROLE":"Regular","STN_CODE":"KLDB"}},{"type":"Feature","id":101,"geometry":{"type":"Point","coordinates":[106.92316000013398,-6.2156063996155808]},"properties":{"OBJECTID":101,"STOP_ID":"KRL049","GEOM_ID":"KRL049_01","STOP_NAME":"Buaran","DISPLAY_NM":"Buaran","MODE":"KRL","OPERATOR":"KAI Commuter","STATUS":"Eksisting","STRUCTURE":"AT_GRADE","LINES":"KRL_CK","SEQ_MAP":"KRL_CK:17","INTEGRASI":"BRT","INT_NM":"BRT:Simpang Buaran","SOURCE":"KAI Commuter; OpenStreetMap","SRC_URL":"https://www.openstreetmap.org/node/3865048155","REMARK":"Stasiun Lin Cikarang; struktur dinormalisasi menjadi AT_GRADE. STOP_ID legacy KRLCK diganti ke seri KRL umum agar konsisten dengan master.","INT_STOP":"BRT:BRT211","STOP_ROLE":"Regular","STN_CODE":"BUA"}},{"type":"Feature","id":102,"geometry":{"type":"Point","coordinates":[106.89941329988392,-6.2133188004222575]},"properties":{"OBJECTID":102,"STOP_ID":"KRL050","GEOM_ID":"KRL050_01","STOP_NAME":"Klender","DISPLAY_NM":"Klender","MODE":"KRL","OPERATOR":"KAI Commuter","STATUS":"Eksisting","STRUCTURE":"AT_GRADE","LINES":"KRL_CK","SEQ_MAP":"KRL_CK:16","INTEGRASI":"BRT","INT_NM":"BRT:Stasiun Klender;BRT:Klender","SOURCE":"KAI Commuter; OpenStreetMap","SRC_URL":"https://www.openstreetmap.org/node/4900932061","REMARK":"Stasiun Lin Cikarang; struktur dinormalisasi menjadi AT_GRADE. STOP_ID legacy KRLCK diganti ke seri KRL umum agar konsisten dengan master.","INT_STOP":"BRT:BRT207;BRT:BRT208","STOP_ROLE":"Regular","STN_CODE":"KLD"}},{"type":"Feature","id":103,"geometry":{"type":"Point","coordinates":[106.87033939984349,-6.2149252000378965]},"properties":{"OBJECTID":103,"STOP_ID":"KRL051","GEOM_ID":"KRL051_01","STOP_NAME":"Jatinegara","DISPLAY_NM":"Jatinegara","MODE":"KRL","OPERATOR":"KAI Commuter","STATUS":"Eksisting","STRUCTURE":"AT_GRADE","LINES":"KRL_CK","SEQ_MAP":"KRL_CK:15","INTEGRASI":"BRT;KAJJ","INT_NM":"BRT:Bali Mester;BRT:Stasiun Jatinegara;BRT:Flyover Jatinegara;KAJJ:Jatinegara","SOURCE":"KAI Commuter; OpenStreetMap","SRC_URL":"https://www.openstreetmap.org/node/4797813240","REMARK":"Stasiun transit Lin Cikarang dan simpul penting jaringan KRL di Jakarta Timur. Terhubung dengan beberapa halte BRT di kawasan Jatinegara dan layanan KAJJ.","INT_STOP":"BRT:BRT198;BRT:BRT201;BRT:BRT202;BRT:BRT203","STOP_ROLE":"Transit","STN_CODE":"JNG"}},{"type":"Feature","id":104,"geometry":{"type":"Point","coordinates":[106.86234189975892,-6.2091241996220674]},"properties":{"OBJECTID":104,"STOP_ID":"KRL052","GEOM_ID":"KRL052_01","STOP_NAME":"Pondok Jati","DISPLAY_NM":"Pondok Jati","MODE":"KRL","OPERATOR":"KAI Commuter","STATUS":"Eksisting","STRUCTURE":"AT_GRADE","LINES":"KRL_CK","SEQ_MAP":"KRL_CK:01","INTEGRASI":null,"INT_NM":null,"SOURCE":"KAI Commuter; OpenStreetMap","SRC_URL":"https://www.openstreetmap.org/node/4800675082","REMARK":"Urutan pertama Lin Cikarang pada master WebGIS: KRL_CK:01.","INT_STOP":null,"STOP_ROLE":"Regular","STN_CODE":"POK"}},{"type":"Feature","id":105,"geometry":{"type":"Point","coordinates":[106.85651189980439,-6.1936203003365335]},"properties":{"OBJECTID":105,"STOP_ID":"KRL053","GEOM_ID":"KRL053_01","STOP_NAME":"Kramat","DISPLAY_NM":"Kramat","MODE":"KRL","OPERATOR":"KAI Commuter","STATUS":"Eksisting","STRUCTURE":"AT_GRADE","LINES":"KRL_CK","SEQ_MAP":"KRL_CK:02","INTEGRASI":null,"INT_NM":null,"SOURCE":"KAI Commuter; OpenStreetMap","SRC_URL":"https://www.openstreetmap.org/node/4149249345","REMARK":"Stasiun Lin Cikarang; struktur dinormalisasi menjadi AT_GRADE. STOP_ID legacy KRLCK diganti ke seri KRL umum agar konsisten dengan master.","INT_STOP":null,"STOP_ROLE":"Regular","STN_CODE":"KMT"}},{"type":"Feature","id":106,"geometry":{"type":"Point","coordinates":[106.85087089957244,-6.1861530998855869]},"properties":{"OBJECTID":106,"STOP_ID":"KRL054","GEOM_ID":"KRL054_01","STOP_NAME":"Gang Sentiong","DISPLAY_NM":"Gang Sentiong","MODE":"KRL","OPERATOR":"KAI Commuter","STATUS":"Eksisting","STRUCTURE":"AT_GRADE","LINES":"KRL_CK","SEQ_MAP":"KRL_CK:03","INTEGRASI":null,"INT_NM":null,"SOURCE":"KAI Commuter; OpenStreetMap","SRC_URL":"https://www.openstreetmap.org/node/4921653106","REMARK":"Stasiun Lin Cikarang; struktur dinormalisasi menjadi AT_GRADE. STOP_ID legacy KRLCK diganti ke seri KRL umum agar konsisten dengan master.","INT_STOP":null,"STOP_ROLE":"Regular","STN_CODE":"GST"}},{"type":"Feature","id":107,"geometry":{"type":"Point","coordinates":[106.84457439968884,-6.174423299995226]},"properties":{"OBJECTID":107,"STOP_ID":"KRL055","GEOM_ID":"KRL055_01","STOP_NAME":"Pasar Senen","DISPLAY_NM":"Pasar Senen","MODE":"KRL","OPERATOR":"KAI Commuter","STATUS":"Eksisting","STRUCTURE":"AT_GRADE","LINES":"KRL_CK","SEQ_MAP":"KRL_CK:04","INTEGRASI":"BRT;KAJJ","INT_NM":"BRT:Senen TOYOTA Rangga;BRT:Jaga Jakarta;KAJJ:Pasar Senen","SOURCE":"KAI Commuter; OpenStreetMap","SRC_URL":"https://www.openstreetmap.org/node/4849162195","REMARK":"Stasiun cabang KRL_CK via Pasar Senen. Terhubung dengan Halte Senen TOYOTA Rangga dan Senen Sentral/Jaga Jakarta serta layanan KAJJ.","INT_STOP":"BRT:BRT035;BRT:BRT186","STOP_ROLE":"Transit","STN_CODE":"PSE"}},{"type":"Feature","id":108,"geometry":{"type":"Point","coordinates":[106.8414012003052,-6.1617032997673959]},"properties":{"OBJECTID":108,"STOP_ID":"KRL056","GEOM_ID":"KRL056_01","STOP_NAME":"Kemayoran","DISPLAY_NM":"Kemayoran","MODE":"KRL","OPERATOR":"KAI Commuter","STATUS":"Eksisting","STRUCTURE":"AT_GRADE","LINES":"KRL_CK","SEQ_MAP":"KRL_CK:05","INTEGRASI":null,"INT_NM":null,"SOURCE":"KAI Commuter; OpenStreetMap","SRC_URL":"https://www.openstreetmap.org/node/4899822033","REMARK":"Stasiun Lin Cikarang; struktur dinormalisasi menjadi AT_GRADE. STOP_ID legacy KRLCK diganti ke seri KRL umum agar konsisten dengan master.","INT_STOP":null,"STOP_ROLE":"Regular","STN_CODE":"KMO"}},{"type":"Feature","id":109,"geometry":{"type":"Point","coordinates":[106.83683250041963,-6.1450995997666951]},"properties":{"OBJECTID":109,"STOP_ID":"KRL057","GEOM_ID":"KRL057_01","STOP_NAME":"Rajawali","DISPLAY_NM":"Rajawali","MODE":"KRL","OPERATOR":"KAI Commuter","STATUS":"Eksisting","STRUCTURE":"AT_GRADE","LINES":"KRL_CK","SEQ_MAP":"KRL_CK:06","INTEGRASI":null,"INT_NM":null,"SOURCE":"KAI Commuter; OpenStreetMap","SRC_URL":"https://www.openstreetmap.org/node/4963127710","REMARK":"Stasiun Lin Cikarang; struktur dinormalisasi menjadi AT_GRADE. STOP_ID legacy KRLCK diganti ke seri KRL umum agar konsisten dengan master.","INT_STOP":null,"STOP_ROLE":"Regular","STN_CODE":"RJW"}},{"type":"Feature","id":110,"geometry":{"type":"Point","coordinates":[106.85975280015168,-6.2125672001161547]},"properties":{"OBJECTID":110,"STOP_ID":"KRL058","GEOM_ID":"KRL058_01","STOP_NAME":"Matraman","DISPLAY_NM":"Matraman","MODE":"KRL","OPERATOR":"KAI Commuter","STATUS":"Eksisting","STRUCTURE":"ELEVATED","LINES":"KRL_CK","SEQ_MAP":"KRL_CK:14","INTEGRASI":"BRT","INT_NM":"BRT:Matraman Baru","SOURCE":"KAI Commuter; OpenStreetMap","SRC_URL":"https://www.openstreetmap.org/node/7764926504","REMARK":"STRUCTURE=ELEVATED dipertahankan dari rail_stop(2).geojson berdasarkan track OSM bridge/layer di sekitar stasiun. Terhubung dengan Halte BRT Matraman Baru.","INT_STOP":"BRT:BRT197","STOP_ROLE":"Regular","STN_CODE":"MTR"}},{"type":"Feature","id":111,"geometry":{"type":"Point","coordinates":[106.82344929964552,-6.202408100353523]},"properties":{"OBJECTID":111,"STOP_ID":"KRL059","GEOM_ID":"KRL059_01","STOP_NAME":"Sudirman","DISPLAY_NM":"Sudirman","MODE":"KRL","OPERATOR":"KAI Commuter","STATUS":"Eksisting","STRUCTURE":"AT_GRADE","LINES":"KRL_CK","SEQ_MAP":"KRL_CK:12","INTEGRASI":"BRT;MRT_NS;LRT_JB_BK;LRT_JB_CB;LRT_JKT_S;KA_BANDARA","INT_NM":"BRT:Dukuh Atas;BRT:Galunggung;MRT_NS:Dukuh Atas BNI;LRT_JB_BK:Dukuh Atas Bank Syariah Indonesia;LRT_JB_CB:Dukuh Atas Bank Syariah Indonesia;LRT_JKT_S:Dukuh Atas;KA_BANDARA:BNI City","SOURCE":"KAI Commuter; OpenStreetMap","SRC_URL":"https://www.openstreetmap.org/node/4925555833","REMARK":"Bagian simpul Dukuh Atas. Dalam urutan aktif Lin Cikarang, Sudirman = KRL_CK:12. Reciprocal dengan BRT Dukuh Atas/Galunggung serta terhubung dengan MRT Dukuh Atas, LRT Jabodebek, rencana LRT Jakarta Dukuh Atas, dan KA Bandara BNI City.","INT_STOP":"BRT:BRT010;BRT:BRT066;MRT_NS:MRT012;LRT_JB_BK:LRTJB001;LRT_JB_CB:LRTJB001;LRT_JKT_S:LRTJ013","STOP_ROLE":"Regular","STN_CODE":"SUD"}},{"type":"Feature","id":112,"geometry":{"type":"Point","coordinates":[106.81971740003803,-6.2015938002136863]},"properties":{"OBJECTID":112,"STOP_ID":"KRL060","GEOM_ID":"KRL060_01","STOP_NAME":"Sudirman Baru","DISPLAY_NM":"BNI City","MODE":"KRL","OPERATOR":"KAI Commuter","STATUS":"Eksisting","STRUCTURE":"AT_GRADE","LINES":"KRL_CK","SEQ_MAP":"KRL_CK:11","INTEGRASI":"BRT;MRT_NS;LRT_JKT_S;KA_BANDARA","INT_NM":"BRT:Galunggung;MRT_NS:Dukuh Atas BNI;LRT_JKT_S:Dukuh Atas;KA_BANDARA:BNI City","SOURCE":"KAI Commuter; OpenStreetMap","SRC_URL":"https://www.openstreetmap.org/node/4908440160","REMARK":"Bagian simpul Dukuh Atas dan stasiun yang juga dilayani KA Bandara. Dalam urutan aktif Lin Cikarang, BNI City ditetapkan sebagai KRL_CK:11. Reciprocal dengan BRT Galunggung; terhubung dengan MRT Dukuh Atas dan rencana LRT Jakarta Dukuh Atas.","INT_STOP":"BRT:BRT066;MRT_NS:MRT012;LRT_JKT_S:LRTJ013","STOP_ROLE":"Regular","STN_CODE":"SUDB"}},{"type":"Feature","id":113,"geometry":{"type":"Point","coordinates":[106.81677039993406,-6.2009538003775333]},"properties":{"OBJECTID":113,"STOP_ID":"KRL061","GEOM_ID":"KRL061_01","STOP_NAME":"Karet","DISPLAY_NM":"Karet","MODE":"KRL","OPERATOR":"KAI Commuter","STATUS":"Nonaktif","STRUCTURE":"AT_GRADE","LINES":"KRL_CK","SEQ_MAP":"KRL_CK:11a","INTEGRASI":"BRT","INT_NM":"BRT:Kebon Melati","SOURCE":"KAI Commuter; OpenStreetMap","SRC_URL":"https://www.openstreetmap.org/node/4849205568","REMARK":"Stasiun Karet berstatus Nonaktif. Dalam urutan master Lin Cikarang dipertahankan sebagai KRL_CK:11a di antara Tanah Abang dan BNI City; penomoran stasiun aktif tetap berlanjut dengan BNI City sebagai KRL_CK:11.","INT_STOP":"BRT:BRT094","STOP_ROLE":"Regular","STN_CODE":"KAT"}},{"type":"Feature","id":114,"geometry":{"type":"Point","coordinates":[106.81089379980909,-6.1857127000810124]},"properties":{"OBJECTID":114,"STOP_ID":"KRL062","GEOM_ID":"KRL062_01","STOP_NAME":"Tanah Abang","DISPLAY_NM":"Tanah Abang","MODE":"KRL","OPERATOR":"KAI Commuter","STATUS":"Eksisting","STRUCTURE":"AT_GRADE","LINES":"KRL_CK","SEQ_MAP":"KRL_CK:10","INTEGRASI":null,"INT_NM":null,"SOURCE":"KAI Commuter; OpenStreetMap","SRC_URL":"https://www.openstreetmap.org/node/4836555990","REMARK":"Stasiun Lin Cikarang; struktur dinormalisasi menjadi AT_GRADE. STOP_ID legacy KRLCK diganti ke seri KRL umum agar konsisten dengan master.","INT_STOP":null,"STOP_ROLE":"Transit","STN_CODE":"THB"}},{"type":"Feature","id":115,"geometry":{"type":"Point","coordinates":[106.80077920029993,-6.144737199961753]},"properties":{"OBJECTID":115,"STOP_ID":"KRL063","GEOM_ID":"KRL063_01","STOP_NAME":"Angke","DISPLAY_NM":"Angke","MODE":"KRL","OPERATOR":"KAI Commuter","STATUS":"Eksisting","STRUCTURE":"AT_GRADE","LINES":"KRL_CK","SEQ_MAP":"KRL_CK:08","INTEGRASI":null,"INT_NM":null,"SOURCE":"KAI Commuter; OpenStreetMap","SRC_URL":"https://www.openstreetmap.org/node/4961436159","REMARK":"Stasiun Lin Cikarang pada urutan tunggal KRL_CK:08.","INT_STOP":null,"STOP_ROLE":"Terminus","STN_CODE":"AK"}}]}